X,Y,objectid,stationid,sampledate,latitude,longitude,stratum,areaweight,psa8,smcshed,county,location,agency,totalcount,totalbiodegradeable,totalbiohazard,totalconstruction,totalfabricandcloth,totalglass,totallarge,totalmetal,totalmisc,totalplastic,totaltoxic,aluminumfoil,aluminumorsteelcans,autoparts,balloons,biodegrageableother,biohazardother,bricks,cds_dvds,cellphone,ceramicpots_shards,chemicalcontainers,cigarettebutts,concrete_asphalt,constructionother,deadanimals,ewaste,expandedfoam,fabricother,foamballs,foamrubber,foodwaste,furniture,garbagebagsoftrash,glassbottles,glasspieces,hosepieces,humanwaste_diapers,largeother,lighters,metalbottlecaps,metalobject,metalpipe_barsegments,miscother,miscpieces_soft,nailsscrewsboltsetc,naturalcottonwool,nodebrispresent,papercardboard,pensormarkers,petwaste,plastic6packholder,plasticbags_pieces,plasticball,plasticbottles,plasticcontainercaps_pieces,plasticcups_plates,plastichard,plasticlid_straw,plasticmisc__pieces,plasticother,plasticpipe,plasticstrawwrapper,plasticwrapper_pieces,rebar,ribbon,rubberpieces,shoppingcarts,smallbatteries,softplasticpieces,sportsballs,spraypaintcans,styrofoampellets,styrofoampieces,styrofoamcontainers,syntheticfabric,syringesorpipettes,tarp,tires,toxicother,vinylrecord,waxpaper,waxedpapercups_plates,wire_barb_chicken_etc,wooddebris,yardwaste_leafpiles
-118.602959,34.234296,1,SMC01912,7/12/12,34.234296,-118.602959,Urban,6.75388271,South_Coast,LosAngeles,LOS ANGELES,Santa Susa Creek,Southern California Stormwater Monitoring Coalition,61,8,1,0,0,0,0,2,0,27,23,2,0,0,0,0,0,0,0,0,0,0,23,0,0,0,0,0,0,0,0,0,0,0,0,0,0,0,0,0,0,0,0,0,0,0,0,0,8,0,1,0,12,1,0,0,0,0,0,6,0,0,0,8,0,0,0,0,0,0,0,0,0,0,0,0,0,0,0,0,0,0,0,0,0,0
-117.788723,33.672216,2,SMC01923,7/12/11,33.672216,-117.788723,Urban,0.92112577,South_Coast,LowerSantaAna,ORANGE,San Diego Creek,Southern California Stormwater Monitoring Coalition,31,1,0,0,8,0,0,0,0,21,1,0,0,0,0,0,0,0,0,0,0,0,1,0,0,0,0,0,4,0,0,1,0,0,0,0,0,0,0,0,0,0,0,0,0,0,0,0,0,0,0,0,7,0,1,1,0,0,2,0,2,1,0,7,0,0,0,0,0,0,0,0,0,0,0,4,0,0,0,0,0,0,0,0,0,0
-117.665955,33.490002,3,SMC01934,6/15/12,33.490002,-117.665955,Urban,4.40305147,South_Coast,SanJuan,ORANGE,Arroyo Trabuco Creek,Southern California Stormwater Monitoring Coalition,69,6,1,2,0,4,0,4,0,44,8,1,1,0,0,0,0,1,0,0,0,0,7,0,0,0,0,0,0,0,0,0,0,0,0,4,0,0,0,0,0,1,1,0,0,0,0,0,6,0,0,0,14,0,2,3,3,0,2,6,0,0,0,13,1,0,0,0,1,0,0,0,0,1,0,0,1,0,0,0,0,0,0,0,0,0
-118.038364,33.91694,4,SMC01982,6/25/13,33.91694,-118.038364,Urban,7.19981454,South_Coast,SanGabriel,LOS ANGELES,Milan Creek,Southern California Stormwater Monitoring Coalition,80,11,0,0,4,3,0,0,4,42,16,0,0,0,1,0,0,0,0,0,0,0,14,0,0,0,0,0,0,0,0,0,0,0,0,3,0,0,0,2,0,0,0,0,0,0,1,0,11,0,0,0,14,0,0,0,0,0,0,7,0,0,0,11,0,0,3,0,0,0,0,0,0,9,0,3,0,1,0,0,0,0,0,0,0,0
-117.711855,33.590288,5,SMC01987,6/15/12,33.590288,-117.711855,Urban,4.74449965,South_Coast,SanJuan,ORANGE,Aliso Creek,Southern California Stormwater Monitoring Coalition,29,4,0,0,0,1,0,0,2,21,1,0,0,0,0,0,0,0,0,0,0,1,0,0,0,0,0,0,0,0,0,0,0,0,0,1,0,0,0,0,0,0,0,0,0,0,0,0,4,0,0,0,5,0,1,0,0,0,1,1,0,0,0,13,0,0,1,0,0,0,1,0,0,0,0,0,0,0,0,0,0,0,0,0,0,0
-117.113274,32.796538,6,SMC01990,9/15/13,32.796538,-117.113274,Urban,1.86701805,South_Coast,MissionBaySanDiego,SAN DIEGO,,Coastkeepers,50,1,0,0,2,0,0,0,2,44,1,0,0,0,0,0,0,0,0,0,0,0,0,0,0,0,1,0,0,0,0,0,0,0,0,0,0,0,0,0,0,0,0,0,1,0,1,0,1,0,0,0,14,0,0,0,0,0,1,8,0,1,0,10,0,0,1,0,0,0,0,0,0,8,1,1,0,0,0,0,0,0,1,0,0,0
-118.165539,34.128683,7,SMC02028,7/12/12,34.128683,-118.165539,Urban,1.23126804,South_Coast,LosAngeles,LOS ANGELES,Arroyo Seco,Southern California Stormwater Monitoring Coalition,8,2,1,0,2,0,0,0,0,1,2,0,0,0,0,0,0,0,0,0,0,0,2,0,0,0,0,0,0,0,0,2,0,0,0,0,0,0,0,0,0,0,0,0,0,0,0,0,0,0,1,1,0,0,0,0,0,0,0,0,0,0,0,0,0,0,0,0,0,0,0,0,0,0,0,2,0,0,0,0,0,0,0,0,0,0
-118.259597,34.302261,8,SMC02088,6/14/11,34.302261,-118.259597,Open,0.73083398,South_Coast,LosAngeles,LOS ANGELES,Alder Creek,Southern California Stormwater Monitoring Coalition,2,0,0,1,0,0,0,0,0,1,0,0,0,0,0,0,0,0,0,0,0,0,0,0,0,0,0,0,0,0,0,0,0,0,0,0,0,0,0,0,0,0,0,0,0,0,0,0,0,0,0,0,0,0,1,0,0,0,0,0,0,0,0,0,0,0,0,0,0,0,0,0,0,0,0,0,0,0,0,0,0,0,0,0,1,0
-118.206846,34.279482,9,SMC02092,6/14/11,34.279482,-118.206846,Open,2.37724297,South_Coast,LosAngeles,LOS ANGELES,Big Tujunga Creek,Southern California Stormwater Monitoring Coalition,0,0,0,0,0,0,0,0,0,0,0,0,0,0,0,0,0,0,0,0,0,0,0,0,0,0,0,0,0,0,0,0,0,0,0,0,0,0,0,0,0,0,0,0,0,0,0,0,0,0,0,0,0,0,0,0,0,0,0,0,0,0,0,0,0,0,0,0,0,0,0,0,0,0,0,0,0,0,0,0,0,0,0,0,0,0
-117.201677,34.108137,10,SMC02123,7/5/11,34.108137,-117.201677,Urban,1.61013307,South_Coast,UpperSantaAna,SAN BERNARDINO,City Creek,Southern California Stormwater Monitoring Coalition,12,0,0,0,1,0,0,0,0,11,0,0,0,0,0,0,0,0,0,0,0,0,0,0,0,0,0,0,0,0,0,0,0,0,0,0,0,0,0,0,0,0,0,0,0,0,0,0,0,0,0,0,3,0,0,2,0,0,2,1,0,0,0,3,0,0,0,0,0,0,0,0,0,0,0,1,0,0,0,0,0,0,0,0,0,0
-117.031468,33.269344,11,SMC02145,7/19/11,33.269344,-117.031468,Ag,1.67395411,South_Coast,NorthernSanDiego,SAN DIEGO,Keyes Creek,Southern California Stormwater Monitoring Coalition,1,1,0,0,0,0,0,0,0,0,0,0,0,0,0,0,0,0,0,0,0,0,0,0,0,0,0,0,0,0,0,0,0,0,0,0,0,0,0,0,0,0,0,0,0,0,0,0,1,0,0,0,0,0,0,0,0,0,0,0,0,0,0,0,0,0,0,0,0,0,0,0,0,0,0,0,0,0,0,0,0,0,0,0,0,0
-117.969223,34.005119,12,SMC02174,5/29/13,34.005119,-117.969223,Urban,8.49326098,South_Coast,SanGabriel,LOS ANGELES,San Gabriel River,Southern California Stormwater Monitoring Coalition,1,0,0,0,0,0,0,0,0,0,1,0,0,0,0,0,0,0,0,0,0,0,1,0,0,0,0,0,0,0,0,0,0,0,0,0,0,0,0,0,0,0,0,0,0,0,0,0,0,0,0,0,0,0,0,0,0,0,0,0,0,0,0,0,0,0,0,0,0,0,0,0,0,0,0,0,0,0,0,0,0,0,0,0,0,0
-117.850027,33.870989,13,SMC02206,7/19/11,33.870989,-117.850027,Urban,0.70360045,South_Coast,LowerSantaAna,ORANGE,Carbon Cyn Channel,Southern California Stormwater Monitoring Coalition,44,0,0,0,0,0,0,5,4,33,2,2,2,0,0,0,0,0,0,0,0,0,1,0,0,0,0,0,0,0,0,0,0,0,0,0,0,0,0,0,0,0,1,1,0,0,0,0,0,0,0,0,7,0,1,2,4,0,0,7,0,2,0,10,0,0,0,0,0,0,3,1,0,0,0,0,0,0,0,0,0,0,0,0,0,0
-117.774842,34.128351,14,SMC02208,5/29/13,34.128351,-117.774842,Urban,11.67592376,South_Coast,SanGabriel,LOS ANGELES,Marshal Creek,Southern California Stormwater Monitoring Coalition,22,1,0,7,0,0,0,1,1,11,1,1,0,0,0,0,0,0,0,0,0,0,1,6,0,0,0,0,0,0,0,0,0,0,0,0,0,0,0,0,0,0,0,0,0,0,0,0,1,0,0,0,3,0,0,0,1,0,0,0,0,0,0,7,0,0,0,0,0,0,1,0,0,0,0,0,0,0,0,0,0,0,0,0,1,0
-118.552402,34.232415,15,SMC02232,6/3/13,34.232415,-118.552402,Urban,5.62694477,South_Coast,LosAngeles,LOS ANGELES,Lime Kiln Canyon Wash,Southern California Stormwater Monitoring Coalition,43,2,1,0,0,1,0,4,0,27,8,0,0,1,0,0,0,0,0,0,0,0,7,0,0,0,0,0,0,0,0,0,0,0,0,1,0,0,0,1,0,1,2,0,0,0,0,0,2,0,0,0,2,0,2,0,2,0,1,2,2,0,0,12,0,0,0,0,0,0,0,0,0,4,0,0,1,0,0,0,0,0,0,0,0,0
-117.772416,33.795739,16,SMC02270,10/3/13,33.795739,-117.772416,Urban,0.92112577,South_Coast,LowerSantaAna,ORANGE,,Coastkeepers,66,16,0,0,0,7,0,6,0,27,10,6,0,0,0,0,0,0,0,0,0,0,10,0,0,0,0,0,0,0,0,0,0,0,7,0,0,0,0,0,0,0,0,0,0,0,0,0,16,0,0,0,2,0,0,0,0,1,0,4,1,0,0,16,0,0,0,0,0,0,0,0,0,3,0,0,0,0,0,0,0,0,0,0,0,0
-117.949399,34.065423,17,SMC02284,5/29/13,34.065423,-117.949399,Urban,3.98165025,South_Coast,SanGabriel,LOS ANGELES,Walnut Creek,Southern California Stormwater Monitoring Coalition,13,1,0,0,1,0,0,3,0,8,0,2,1,0,0,0,0,0,0,0,0,0,0,0,0,0,0,0,0,0,0,0,0,0,0,0,0,0,0,0,0,0,0,0,0,0,1,0,1,0,0,0,2,0,0,0,0,0,0,0,0,0,0,6,0,0,0,0,0,0,0,0,0,0,0,0,0,0,0,0,0,0,0,0,0,0
-118.041286,33.815305,18,SMC02302,7/15/13,33.815305,-118.041286,Urban,5.3447683,South_Coast,SanGabriel,ORANGE,Carbon Creek,Southern California Stormwater Monitoring Coalition,85,1,0,0,0,55,0,9,1,12,7,2,1,0,0,0,0,0,0,0,0,0,0,0,0,0,0,0,0,0,0,0,0,0,0,55,0,0,0,0,1,2,0,0,0,3,0,0,1,3,0,0,0,0,1,1,0,0,0,4,1,0,0,5,0,0,1,0,0,0,0,0,0,0,0,0,0,0,0,4,0,0,0,0,0,0
-119.154565,34.558855,19,SMC02363,6/16/11,34.558855,-119.154565,Open,1.97147027,South_Coast,SantaClara,VENTURA,Sespe Creek (upper),Southern California Stormwater Monitoring Coalition,0,0,0,0,0,0,0,0,0,0,0,0,0,0,0,0,0,0,0,0,0,0,0,0,0,0,0,0,0,0,0,0,0,0,0,0,0,0,0,0,0,0,0,0,0,0,0,0,0,0,0,0,0,0,0,0,0,0,0,0,0,0,0,0,0,0,0,0,0,0,0,0,0,0,0,0,0,0,0,0,0,0,0,0,0,0
-117.062362,33.133854,20,SMC02417,7/20/11,33.133854,-117.062362,Urban,3.7549644,South_Coast,CentralSanDiego,SAN DIEGO,Escondido Creek,Southern California Stormwater Monitoring Coalition,33,0,1,0,0,25,0,5,1,1,0,1,0,0,0,0,0,0,0,0,0,0,0,0,0,0,0,0,0,0,0,0,0,0,0,25,0,0,0,0,0,3,1,0,0,0,0,0,0,0,0,0,0,0,1,0,0,0,0,0,0,0,0,0,0,0,0,0,0,0,1,0,0,0,0,0,1,0,0,0,0,0,0,0,0,0
-117.643214,34.246354,21,SMC02464,6/22/11,34.246354,-117.643214,Open,0.89481194,South_Coast,MiddleSantaAna,SAN BERNARDINO,San Antonio Creek,Southern California Stormwater Monitoring Coalition,17,1,0,0,2,0,0,9,0,5,0,0,3,0,0,0,0,0,0,0,0,0,0,0,0,0,0,0,0,0,0,0,0,0,0,0,0,0,0,0,0,1,0,0,0,0,2,0,1,0,0,0,1,0,0,1,0,0,0,0,0,0,0,3,0,0,0,0,0,0,0,0,0,0,0,0,0,0,0,0,0,0,0,5,0,0
-118.367645,34.145104,22,SMC02484,6/5/13,34.145104,-118.367645,Urban,6.75388271,South_Coast,LosAngeles,LOS ANGELES,Tujunga Wash,Southern California Stormwater Monitoring Coalition,20,0,0,0,1,0,0,2,0,9,8,0,0,0,0,0,0,0,0,0,0,0,7,0,0,0,0,0,0,0,0,0,0,0,0,0,0,0,0,0,0,2,0,0,0,0,0,0,0,0,0,0,0,0,0,0,0,0,0,3,0,0,0,6,0,0,0,0,1,0,0,0,0,0,0,1,0,0,0,0,0,0,0,0,0,0
-118.543435,34.24585,23,SMC02488,6/3/13,34.24585,-118.543435,Urban,6.75388271,South_Coast,LosAngeles,LOS ANGELES,Wilbur Wash,Southern California Stormwater Monitoring Coalition,1,0,0,0,0,0,0,0,0,1,0,0,0,0,0,0,0,0,0,0,0,0,0,0,0,0,0,0,0,0,0,0,0,0,0,0,0,0,0,0,0,0,0,0,0,0,0,0,0,0,0,0,0,0,0,0,0,0,0,0,0,0,0,1,0,0,0,0,0,0,0,0,0,0,0,0,0,0,0,0,0,0,0,0,0,0
-116.635916,33.129743,24,SMC02561,6/1/11,33.129743,-116.635916,Open,4.21234024,South_Coast,CentralSanDiego,SAN DIEGO,Santa Ysabel Creek,Southern California Stormwater Monitoring Coalition,0,0,0,0,0,0,0,0,0,0,0,0,0,0,0,0,0,0,0,0,0,0,0,0,0,0,0,0,0,0,0,0,0,0,0,0,0,0,0,0,0,0,0,0,0,0,0,0,0,0,0,0,0,0,0,0,0,0,0,0,0,0,0,0,0,0,0,0,0,0,0,0,0,0,0,0,0,0,0,0,0,0,0,0,0,0
-116.896877,34.184717,25,SMC02567,7/10/12,34.184717,-116.896877,Open,1.58271825,South_Coast,UpperSantaAna,SAN BERNARDINO,Santa A River,Southern California Stormwater Monitoring Coalition,9,2,0,3,0,0,0,1,0,3,0,0,0,0,0,0,0,0,0,0,0,0,0,0,0,0,0,0,0,0,0,0,0,0,0,0,0,0,0,0,0,0,0,0,0,1,0,0,2,0,0,0,2,0,0,1,0,0,0,0,0,0,0,0,0,0,0,0,0,0,0,0,0,0,0,0,0,0,0,0,0,0,0,0,3,0
-118.220314,34.278661,26,SMC02568,6/12/12,34.278661,-118.220314,Open,2.37724297,South_Coast,LosAngeles,LOS ANGELES,Big Tujunga Wash,Southern California Stormwater Monitoring Coalition,1,0,0,0,0,0,0,1,0,0,0,0,1,0,0,0,0,0,0,0,0,0,0,0,0,0,0,0,0,0,0,0,0,0,0,0,0,0,0,0,0,0,0,0,0,0,0,0,0,0,0,0,0,0,0,0,0,0,0,0,0,0,0,0,0,0,0,0,0,0,0,0,0,0,0,0,0,0,0,0,0,0,0,0,0,0
-118.303487,34.361795,27,SMC02712,6/7/12,34.361795,-118.303487,Open,2.9941967,South_Coast,LosAngeles,LOS ANGELES,Pacoima Canyon,Southern California Stormwater Monitoring Coalition,0,0,0,0,0,0,0,0,0,0,0,0,0,0,0,0,0,0,0,0,0,0,0,0,0,0,0,0,0,0,0,0,0,0,0,0,0,0,0,0,0,0,0,0,0,0,0,0,0,0,0,0,0,0,0,0,0,0,0,0,0,0,0,0,0,0,0,0,0,0,0,0,0,0,0,0,0,0,0,0,0,0,0,0,0,0
-117.374356,33.930154,28,SMC02749,6/27/11,33.930154,-117.374356,Urban,1.73034524,South_Coast,MiddleSantaAna,RIVERSIDE,Gage Cal,Southern California Stormwater Monitoring Coalition,6,0,0,0,1,0,0,0,1,4,0,0,0,0,0,0,0,0,0,0,0,0,0,0,0,0,0,0,0,0,0,0,0,0,0,0,1,0,0,0,0,0,0,0,0,0,0,0,0,0,0,0,1,0,0,0,0,0,0,0,0,1,0,2,0,0,0,0,0,0,0,0,0,0,0,1,0,0,0,0,0,0,0,0,0,0
-118.754901,34.447782,29,SMC02764,6/14/11,34.447782,-118.754901,Open,2.37027444,South_Coast,SantaClara,VENTURA,Piru Creek,Southern California Stormwater Monitoring Coalition,4,0,0,1,0,0,0,1,0,2,0,0,0,0,0,0,0,0,0,0,0,0,0,0,0,0,0,0,0,0,0,0,0,0,0,0,0,0,0,0,1,0,0,0,0,0,0,0,0,0,0,0,2,0,0,0,0,0,0,0,0,0,0,0,0,0,0,0,0,0,0,0,0,0,0,0,0,0,0,0,0,0,0,0,1,0
-118.086323,34.083977,30,SMC02796,6/18/13,34.083977,-118.086323,Urban,6.75388271,South_Coast,LosAngeles,LOS ANGELES,Rubio Wash,Southern California Stormwater Monitoring Coalition,11,3,0,2,1,0,0,1,0,2,2,1,0,0,0,0,0,0,0,0,0,0,1,0,0,0,0,0,0,0,0,0,0,0,0,0,0,0,0,0,0,0,0,0,0,0,0,0,3,0,0,0,0,0,0,0,0,0,0,2,0,0,0,0,0,0,0,0,1,0,0,0,0,0,0,1,0,0,0,0,0,0,0,0,2,0
-118.408663,34.145341,31,SMC02804,6/20/11,34.145341,-118.408663,Urban,8.65300194,South_Coast,LosAngeles,LOS ANGELES,Los Angeles River,Southern California Stormwater Monitoring Coalition,0,0,0,0,0,0,0,0,0,0,0,0,0,0,0,0,0,0,0,0,0,0,0,0,0,0,0,0,0,0,0,0,0,0,0,0,0,0,0,0,0,0,0,0,0,0,0,0,0,0,0,0,0,0,0,0,0,0,0,0,0,0,0,0,0,0,0,0,0,0,0,0,0,0,0,0,0,0,0,0,0,0,0,0,0,0
-118.436264,34.544013,32,SMC02888,6/26/12,34.544013,-118.436264,Open,3.06541305,South_Coast,SantaClara,LOS ANGELES,Boquet Canyon Creek,Southern California Stormwater Monitoring Coalition,15,0,0,0,8,1,0,0,0,6,0,0,0,0,0,0,0,0,0,0,0,0,0,0,0,0,0,0,0,0,0,0,0,0,1,0,0,0,0,0,0,0,0,0,0,0,4,0,0,0,0,0,2,0,0,0,0,0,1,2,0,0,0,1,0,0,0,0,0,0,0,0,0,0,0,4,0,0,0,0,0,0,0,0,0,0
-117.064432,32.949075,33,SMC02902,8/2/11,32.949075,-117.064432,Urban,7.63514504,South_Coast,CentralSanDiego,SAN DIEGO,Poway Creek,Southern California Stormwater Monitoring Coalition,43,1,0,1,0,1,1,0,6,32,1,0,0,0,2,0,0,0,0,0,0,1,0,0,0,0,0,0,0,0,0,0,0,0,1,0,0,0,0,0,0,0,0,0,0,0,0,0,1,0,0,0,4,0,8,0,0,0,0,10,0,0,0,2,0,0,0,0,0,0,4,0,0,8,0,0,0,0,1,0,0,0,0,0,1,0
-117.328701,33.240931,34,SMC02905,7/9/13,33.240931,-117.328701,Urban,0.96869634,South_Coast,NorthernSanDiego,SAN DIEGO,San Luis Rey River,Southern California Stormwater Monitoring Coalition,18,3,0,0,3,0,0,2,3,6,1,0,2,0,1,0,0,0,0,0,0,0,1,0,0,0,0,0,0,0,0,0,0,0,0,0,1,0,0,0,0,0,0,0,0,0,2,0,3,0,0,0,2,0,3,0,0,0,0,0,0,0,0,1,0,0,0,0,0,0,1,0,0,0,0,1,0,0,0,0,0,0,0,0,0,0
-118.642105,34.185903,35,SMC02936,6/18/13,34.185903,-118.642105,Urban,6.75388271,South_Coast,LosAngeles,LOS ANGELES,Bell Creek Trib,Southern California Stormwater Monitoring Coalition,7,1,0,0,0,0,0,2,0,4,0,0,0,0,0,0,0,0,0,0,0,0,0,0,0,0,0,0,0,0,0,0,0,0,0,0,0,0,0,0,2,0,0,0,0,0,0,0,1,0,0,0,4,0,0,0,0,0,0,0,0,0,0,0,0,0,0,0,0,0,0,0,0,0,0,0,0,0,0,0,0,0,0,0,0,0
-117.811432,33.699192,36,SMC02947,7/12/11,33.699192,-117.811432,Urban,0.91855812,South_Coast,LowerSantaAna,ORANGE,Peter's Cyn Wash,Southern California Stormwater Monitoring Coalition,217,0,0,0,0,0,0,0,0,217,0,0,0,0,0,0,0,0,0,0,0,0,0,0,0,0,0,0,0,0,0,0,0,0,0,0,0,0,0,0,0,0,0,0,0,0,0,0,0,0,0,0,119,0,15,3,7,0,4,23,2,3,0,12,0,0,0,0,0,0,0,0,0,29,0,0,0,0,0,0,0,0,0,0,0,0
-118.075503,34.249578,37,SMC02972,7/18/12,34.249578,-118.075503,Open,5.55111326,South_Coast,SanGabriel,LOS ANGELES,French Valley Creek,Southern California Stormwater Monitoring Coalition,0,0,0,0,0,0,0,0,0,0,0,0,0,0,0,0,0,0,0,0,0,0,0,0,0,0,0,0,0,0,0,0,0,0,0,0,0,0,0,0,0,0,0,0,0,0,0,0,0,0,0,0,0,0,0,0,0,0,0,0,0,0,0,0,0,0,0,0,0,0,0,0,0,0,0,0,0,0,0,0,0,0,0,0,0,0
-117.695501,33.6145,38,SMC03011,6/13/13,33.6145,-117.695501,Urban,4.74449965,South_Coast,SanJuan,ORANGE,Aliso Creek,Southern California Stormwater Monitoring Coalition,53,23,0,0,0,0,0,3,0,21,6,0,0,0,0,0,0,0,0,0,0,0,6,0,0,0,0,0,0,0,0,0,0,0,0,0,0,0,0,0,3,0,0,0,0,0,0,0,23,0,0,0,4,0,0,0,0,0,0,3,1,0,0,2,0,0,0,0,0,0,0,0,0,11,0,0,0,0,0,0,0,0,0,0,0,0
-117.073358,32.811057,39,SMC03110,7/26/11,32.811057,-117.073358,Urban,1.5061776,South_Coast,MissionBaySanDiego,SAN DIEGO,San Diego River,Southern California Stormwater Monitoring Coalition,0,0,0,0,0,0,0,0,0,0,0,0,0,0,0,0,0,0,0,0,0,0,0,0,0,0,0,0,0,0,0,0,0,0,0,0,0,0,0,0,0,0,0,0,0,0,0,0,0,0,0,0,0,0,0,0,0,0,0,0,0,0,0,0,0,0,0,0,0,0,0,0,0,0,0,0,0,0,0,0,0,0,0,0,0,0
-117.610538,34.245366,40,SMC03111,6/6/12,34.245366,-117.610538,Open,1.16995489,South_Coast,MiddleSantaAna,SAN BERNARDINO,Ice House Canyon,Southern California Stormwater Monitoring Coalition,8,4,0,0,0,0,0,2,0,2,0,0,0,0,0,0,0,0,0,0,0,0,0,0,0,0,0,0,0,0,0,1,0,0,0,0,0,0,0,0,0,0,1,0,0,0,0,0,3,0,0,0,0,0,0,0,0,0,0,0,0,0,0,2,0,0,0,0,0,0,0,0,0,0,0,0,0,0,0,0,0,0,0,1,0,0
-116.729186,33.003129,41,SMC03210,5/18/11,33.003129,-116.729186,Open,2.13818637,South_Coast,MissionBaySanDiego,SAN DIEGO,San Diego River,Southern California Stormwater Monitoring Coalition,0,0,0,0,0,0,0,0,0,0,0,0,0,0,0,0,0,0,0,0,0,0,0,0,0,0,0,0,0,0,0,0,0,0,0,0,0,0,0,0,0,0,0,0,0,0,0,0,0,0,0,0,0,0,0,0,0,0,0,0,0,0,0,0,0,0,0,0,0,0,0,0,0,0,0,0,0,0,0,0,0,0,0,0,0,0
-117.840935,34.280921,42,SMC03216,7/27/11,34.280921,-117.840935,Open,2.96271964,South_Coast,SanGabriel,LOS ANGELES,,Southern California Stormwater Monitoring Coalition,0,0,0,0,0,0,0,0,0,0,0,0,0,0,0,0,0,0,0,0,0,0,0,0,0,0,0,0,0,0,0,0,0,0,0,0,0,0,0,0,0,0,0,0,0,0,0,0,0,0,0,0,0,0,0,0,0,0,0,0,0,0,0,0,0,0,0,0,0,0,0,0,0,0,0,0,0,0,0,0,0,0,0,0,0,0
-117.06725,33.022094,43,SMC03222,7/11/12,33.022094,-117.06725,Urban,8.26323917,South_Coast,CentralSanDiego,SAN DIEGO,Rancho Berrdo Channel,Southern California Stormwater Monitoring Coalition,3,0,0,0,0,0,0,0,1,2,0,0,0,0,0,0,0,0,0,0,0,0,0,0,0,0,0,0,0,0,0,0,0,0,0,0,0,0,0,0,0,0,0,0,0,0,0,0,0,0,0,0,0,0,0,0,0,0,1,1,0,0,0,0,0,0,0,0,0,0,1,0,0,0,0,0,0,0,0,0,0,0,0,0,0,0
-116.627414,33.661524,44,SMC03234,6/28/11,33.661524,-116.627414,Open,0.62454535,South_Coast,SanJacinto,RIVERSIDE,San Jacinto,Southern California Stormwater Monitoring Coalition,0,0,0,0,0,0,0,0,0,0,0,0,0,0,0,0,0,0,0,0,0,0,0,0,0,0,0,0,0,0,0,0,0,0,0,0,0,0,0,0,0,0,0,0,0,0,0,0,0,0,0,0,0,0,0,0,0,0,0,0,0,0,0,0,0,0,0,0,0,0,0,0,0,0,0,0,0,0,0,0,0,0,0,0,0,0
-117.856527,34.256856,45,SMC03280,8/11/11,34.256856,-117.856527,Open,2.96271964,South_Coast,SanGabriel,LOS ANGELES,North Fork SGR,Southern California Stormwater Monitoring Coalition,58,4,0,0,5,1,0,3,6,39,0,0,0,0,0,0,0,0,0,0,0,0,0,0,0,0,0,0,0,0,0,0,0,0,1,0,0,0,0,0,0,2,0,6,0,0,3,0,4,0,0,0,7,0,6,0,2,0,0,18,0,0,0,6,0,0,0,0,0,0,0,0,0,0,0,2,0,0,0,0,0,0,0,1,0,0
-117.792529,33.937083,46,SMC03438,7/2/12,33.937083,-117.792529,Open,1.81486741,South_Coast,LowerSantaAna,ORANGE,Carbon Cyn Creek,Southern California Stormwater Monitoring Coalition,11,0,0,2,0,2,0,1,1,5,0,0,0,0,0,0,0,2,0,0,0,0,0,0,0,0,0,0,0,0,0,0,0,0,2,0,0,0,0,0,0,1,0,1,0,0,0,0,0,0,0,0,0,0,1,0,0,0,0,0,1,1,0,2,0,0,0,0,0,0,0,0,0,0,0,0,0,0,0,0,0,0,0,0,0,0
-117.832306,34.303549,47,SMC03452,6/13/12,34.303549,-117.832306,Open,5.55111326,South_Coast,SanGabriel,LOS ANGELES,Rockbound Canyon,Southern California Stormwater Monitoring Coalition,2,0,0,0,0,0,0,0,0,2,0,0,0,0,0,0,0,0,0,0,0,0,0,0,0,0,0,0,0,0,0,0,0,0,0,0,0,0,0,0,0,0,0,0,0,0,0,0,0,0,0,0,0,0,1,0,0,0,0,1,0,0,0,0,0,0,0,0,0,0,0,0,0,0,0,0,0,0,0,0,0,0,0,0,0,0
-117.626851,34.248016,48,SMC03488,6/6/12,34.248016,-117.626851,Open,1.16995489,South_Coast,MiddleSantaAna,SAN BERNARDINO,Ice House Canyon,Southern California Stormwater Monitoring Coalition,6,1,0,0,0,0,1,2,0,2,0,0,0,0,0,0,0,0,0,0,0,0,0,0,0,0,0,0,0,0,0,0,0,0,0,0,0,0,1,0,0,1,0,0,0,0,0,0,1,0,0,0,0,0,1,0,0,0,0,0,0,0,0,1,0,0,0,0,0,0,0,0,0,0,0,0,0,0,0,0,0,0,0,1,0,0
-116.787345,32.563637,49,SMC03510,7/21/11,32.563637,-116.787345,Open,1.4546987,South_Coast,SouthernSanDiego,SAN DIEGO,Tijua River,Southern California Stormwater Monitoring Coalition,0,0,0,0,0,0,0,0,0,0,0,0,0,0,0,0,0,0,0,0,0,0,0,0,0,0,0,0,0,0,0,0,0,0,0,0,0,0,0,0,0,0,0,0,0,0,0,0,0,0,0,0,0,0,0,0,0,0,0,0,0,0,0,0,0,0,0,0,0,0,0,0,0,0,0,0,0,0,0,0,0,0,0,0,0,0
-117.664379,33.584781,50,SMC03523,6/11/13,33.584781,-117.664379,Urban,4.74449965,South_Coast,SanJuan,ORANGE,Oso Creek,Southern California Stormwater Monitoring Coalition,41,1,0,4,1,1,2,4,5,23,0,0,3,0,0,0,0,1,0,0,0,0,0,0,1,0,0,0,1,0,0,0,0,0,0,1,0,0,0,0,0,1,0,0,0,0,0,0,1,0,0,0,9,0,5,0,1,0,1,3,2,1,0,1,0,0,1,2,0,0,4,0,0,0,0,0,0,0,0,0,0,0,0,0,2,0
-118.169105,33.9784,51,SMC03646,6/5/13,33.9784,-118.169105,Urban,3.59502488,South_Coast,LosAngeles,LOS ANGELES,LA River,Southern California Stormwater Monitoring Coalition,42,0,0,0,0,0,0,3,0,30,9,0,1,0,0,0,0,0,0,0,0,0,8,0,0,0,0,0,0,0,0,0,0,0,0,0,0,0,0,0,1,0,0,0,0,0,0,0,0,0,0,0,0,0,0,3,0,0,0,9,0,0,0,18,0,0,0,0,0,0,0,1,0,0,0,0,0,0,0,0,0,0,0,1,0,0
-117.092598,33.119688,52,SMC03737,7/6/12,33.119688,-117.092598,Urban,3.7549644,South_Coast,CentralSanDiego,SAN DIEGO,Escondido Creek,Southern California Stormwater Monitoring Coalition,70,7,0,0,2,3,0,3,1,52,2,0,0,0,0,0,0,0,0,0,0,0,2,0,0,0,0,0,2,0,0,0,0,1,0,3,0,0,0,0,0,2,0,0,0,1,0,0,6,0,0,0,20,0,1,3,0,0,0,12,0,0,0,16,0,0,0,0,0,0,0,0,0,0,0,0,0,0,0,0,0,0,0,0,0,1
-116.658443,32.894218,53,SMC03786,6/19/12,32.894218,-116.658443,Open,2.13818637,South_Coast,MissionBaySanDiego,SAN DIEGO,King Creek,Southern California Stormwater Monitoring Coalition,0,0,0,0,0,0,0,0,0,0,0,0,0,0,0,0,0,0,0,0,0,0,0,0,0,0,0,0,0,0,0,0,0,0,0,0,0,0,0,0,0,0,0,0,0,0,0,0,0,0,0,0,0,0,0,0,0,0,0,0,0,0,0,0,0,0,0,0,0,0,0,0,0,0,0,0,0,0,0,0,0,0,0,0,0,0
-117.304535,33.178652,54,SMC03929,7/5/12,33.178652,-117.304535,Urban,4.54436259,South_Coast,CentralSanDiego,SAN DIEGO,Bue Vista Creek,Southern California Stormwater Monitoring Coalition,87,2,0,3,1,0,1,6,3,70,1,1,2,0,0,0,0,0,0,0,0,0,0,0,0,0,0,0,0,0,0,0,0,0,0,0,1,0,0,0,0,2,1,0,0,0,0,0,2,0,0,0,13,0,5,0,2,0,1,23,0,0,0,24,0,0,2,0,0,0,0,1,0,2,0,1,0,0,1,0,0,0,0,0,3,0
-117.827752,33.675511,55,SMC03971,7/11/11,33.675511,-117.827752,Urban,0.92112577,South_Coast,LowerSantaAna,ORANGE,San Joaquin Channel,Southern California Stormwater Monitoring Coalition,25,2,0,0,0,0,0,5,2,16,0,0,1,0,0,0,0,0,0,0,0,0,0,0,0,0,0,0,0,0,0,1,0,0,0,0,0,0,0,0,0,0,4,1,0,0,0,0,1,0,0,0,2,0,3,1,1,0,0,2,0,0,0,7,0,1,0,0,0,0,0,0,0,0,0,0,0,0,0,0,0,0,0,0,0,0
-117.901868,34.246131,56,SMC03984,6/18/12,34.246131,-117.901868,Open,2.96271964,South_Coast,SanGabriel,LOS ANGELES,West Fork - SGRiver,Southern California Stormwater Monitoring Coalition,1,0,0,0,0,0,0,0,0,1,0,0,0,0,0,0,0,0,0,0,0,0,0,0,0,0,0,0,0,0,0,0,0,0,0,0,0,0,0,0,0,0,0,0,0,0,0,0,0,0,0,0,0,0,0,0,0,0,0,1,0,0,0,0,0,0,0,0,0,0,0,0,0,0,0,0,0,0,0,0,0,0,0,0,0,0
-117.72327,33.997617,57,SMC04078,7/11/12,33.997617,-117.72327,Urban,2.55254616,South_Coast,MiddleSantaAna,SAN BERNARDINO,Chino Creek,Southern California Stormwater Monitoring Coalition,45,3,0,0,0,0,0,0,1,41,0,0,0,0,0,0,0,0,0,0,0,0,0,0,0,0,0,0,0,0,0,0,0,0,0,0,0,0,0,0,0,0,0,0,0,0,0,0,3,0,0,0,0,0,1,0,0,0,0,22,0,0,0,7,0,0,1,0,0,0,0,0,0,11,0,0,0,0,0,0,0,0,0,0,0,0
-117.198338,33.184665,58,SMC04121,7/8/12,33.184665,-117.198338,Urban,4.54436259,South_Coast,CentralSanDiego,SAN DIEGO,Bue Vista Creek,Southern California Stormwater Monitoring Coalition,2,0,0,0,0,1,0,1,0,0,0,0,0,0,0,0,0,0,0,0,0,0,0,0,0,0,0,0,0,0,0,0,0,0,1,0,0,0,0,0,0,1,0,0,0,0,0,0,0,0,0,0,0,0,0,0,0,0,0,0,0,0,0,0,0,0,0,0,0,0,0,0,0,0,0,0,0,0,0,0,0,0,0,0,0,0
-117.05243,32.828743,59,SMC04134,7/26/11,32.828743,-117.05243,Open,2.13818637,South_Coast,MissionBaySanDiego,SAN DIEGO,San Diego River,Southern California Stormwater Monitoring Coalition,0,0,0,0,0,0,0,0,0,0,0,0,0,0,0,0,0,0,0,0,0,0,0,0,0,0,0,0,0,0,0,0,0,0,0,0,0,0,0,0,0,0,0,0,0,0,0,0,0,0,0,0,0,0,0,0,0,0,0,0,0,0,0,0,0,0,0,0,0,0,0,0,0,0,0,0,0,0,0,0,0,0,0,0,0,0
-118.018534,34.203587,60,SMC04204,7/11/12,34.203587,-118.018534,Open,4.08636922,South_Coast,LosAngeles,LOS ANGELES,Santa Anita Wash,Southern California Stormwater Monitoring Coalition,12,9,0,0,0,0,0,1,2,0,0,1,0,0,0,0,0,0,0,0,0,0,0,0,0,0,0,0,0,0,0,8,0,0,0,0,0,0,0,0,0,0,0,2,0,0,0,0,1,0,0,0,0,0,0,0,0,0,0,0,0,0,0,0,0,0,0,0,0,0,0,0,0,0,0,0,0,0,0,0,0,0,0,0,0,0
-117.466052,33.474861,61,SMC04309,5/16/11,33.474861,-117.466052,Open,2.54185528,South_Coast,SanJuan,SAN DIEGO,San Mateo Canyon Cr,Southern California Stormwater Monitoring Coalition,0,0,0,0,0,0,0,0,0,0,0,0,0,0,0,0,0,0,0,0,0,0,0,0,0,0,0,0,0,0,0,0,0,0,0,0,0,0,0,0,0,0,0,0,0,0,0,0,0,0,0,0,0,0,0,0,0,0,0,0,0,0,0,0,0,0,0,0,0,0,0,0,0,0,0,0,0,0,0,0,0,0,0,0,0,0
-117.453146,33.603476,62,SMC04409,5/31/11,33.603476,-117.453146,Open,2.54185528,South_Coast,SanJuan,RIVERSIDE,San Juan Creek,Southern California Stormwater Monitoring Coalition,26,0,0,0,3,0,0,4,4,15,0,1,0,1,0,0,0,0,0,0,0,0,0,0,0,0,0,0,0,0,0,0,0,0,0,0,0,0,0,0,0,1,1,3,0,0,1,0,0,0,0,0,10,0,0,0,0,0,0,4,0,1,0,0,0,0,1,0,0,0,0,0,0,0,0,2,0,0,0,0,0,0,0,0,0,0
-116.669951,33.006967,63,SMC04426,7/25/11,33.006967,-116.669951,Open,2.13818637,South_Coast,MissionBaySanDiego,SAN DIEGO,Ceder Creek,Southern California Stormwater Monitoring Coalition,0,0,0,0,0,0,0,0,0,0,0,0,0,0,0,0,0,0,0,0,0,0,0,0,0,0,0,0,0,0,0,0,0,0,0,0,0,0,0,0,0,0,0,0,0,0,0,0,0,0,0,0,0,0,0,0,0,0,0,0,0,0,0,0,0,0,0,0,0,0,0,0,0,0,0,0,0,0,0,0,0,0,0,0,0,0
-118.148816,34.410891,64,SMC04432,6/26/12,34.410891,-118.148816,Open,3.17768051,South_Coast,SantaClara,LOS ANGELES,Gleason Canyon,Southern California Stormwater Monitoring Coalition,0,0,0,0,0,0,0,0,0,0,0,0,0,0,0,0,0,0,0,0,0,0,0,0,0,0,0,0,0,0,0,0,0,0,0,0,0,0,0,0,0,0,0,0,0,0,0,0,0,0,0,0,0,0,0,0,0,0,0,0,0,0,0,0,0,0,0,0,0,0,0,0,0,0,0,0,0,0,0,0,0,0,0,0,0,0
-117.276888,33.174449,65,SMC04441,7/19/13,33.174449,-117.276888,Urban,4.54436259,South_Coast,CentralSanDiego,SAN DIEGO,Calaveras Creek,Southern California Stormwater Monitoring Coalition,21,1,0,12,0,1,1,4,0,2,0,0,3,1,0,0,0,0,0,0,0,0,0,0,0,0,0,0,0,0,0,0,0,0,1,0,0,0,1,0,0,0,0,0,0,0,0,0,1,0,0,0,0,0,0,0,0,0,0,1,0,0,0,1,0,0,0,0,0,0,0,0,0,0,0,0,0,0,0,0,0,0,0,0,12,0
-117.147564,34.111069,66,SMC04471,7/9/12,34.111069,-117.147564,Urban,1.61013307,South_Coast,UpperSantaAna,SAN BERNARDINO,Plunge Creek,Southern California Stormwater Monitoring Coalition,1,0,0,1,0,0,0,0,0,0,0,0,0,0,0,0,0,0,0,0,0,0,0,0,0,0,0,0,0,0,0,0,0,0,0,0,0,0,0,0,0,0,0,0,0,0,0,0,0,0,0,0,0,0,0,0,0,0,0,0,0,0,0,0,0,0,0,0,0,0,0,0,0,0,0,0,0,0,0,0,0,0,0,0,1,0
-118.033674,34.247611,67,SMC04524,7/9/13,34.247611,-118.033674,Open,2.96271964,South_Coast,SanGabriel,LOS ANGELES,West Fork San Gabriel River,Southern California Stormwater Monitoring Coalition,0,0,0,0,0,0,0,0,0,0,0,0,0,0,0,0,0,0,0,0,0,0,0,0,0,0,0,0,0,0,0,0,0,0,0,0,0,0,0,0,0,0,0,0,0,0,0,0,0,0,0,0,0,0,0,0,0,0,0,0,0,0,0,0,0,0,0,0,0,0,0,0,0,0,0,0,0,0,0,0,0,0,0,0,0,0
-118.287714,34.155954,68,SMC04532,7/11/12,34.155954,-118.287714,Urban,3.59502488,South_Coast,LosAngeles,LOS ANGELES,LA River,Southern California Stormwater Monitoring Coalition,85,0,0,0,0,0,0,1,3,79,2,0,1,0,0,0,0,0,0,1,0,0,0,0,0,0,0,0,0,0,0,0,0,0,0,0,0,0,0,1,0,0,0,0,0,0,0,0,0,0,0,0,3,0,1,0,0,0,1,4,0,0,0,12,0,0,0,0,0,0,2,0,0,58,0,0,0,0,0,0,0,0,1,0,0,0
-117.414154,33.531606,69,SMC04565,5/31/11,33.531606,-117.414154,Open,2.54185528,South_Coast,SanJuan,RIVERSIDE,San Mateo Canyon Cr,Southern California Stormwater Monitoring Coalition,1,0,0,0,0,0,0,0,0,1,0,0,0,0,0,0,0,0,0,0,0,0,0,0,0,0,0,0,0,0,0,0,0,0,0,0,0,0,0,0,0,0,0,0,0,0,0,0,0,0,0,0,0,0,0,0,0,0,0,1,0,0,0,0,0,0,0,0,0,0,0,0,0,0,0,0,0,0,0,0,0,0,0,0,0,0
-117.224996,33.406069,70,SMC04661,7/18/11,33.406069,-117.224996,Open,1.42556761,South_Coast,NorthernSanDiego,SAN DIEGO,Santa Margarita River,Southern California Stormwater Monitoring Coalition,0,0,0,0,0,0,0,0,0,0,0,0,0,0,0,0,0,0,0,0,0,0,0,0,0,0,0,0,0,0,0,0,0,0,0,0,0,0,0,0,0,0,0,0,0,0,0,0,0,0,0,0,0,0,0,0,0,0,0,0,0,0,0,0,0,0,0,0,0,0,0,0,0,0,0,0,0,0,0,0,0,0,0,0,0,0
-116.648146,32.971153,71,SMC04682,6/25/11,32.971153,-116.648146,Open,2.19403654,South_Coast,MissionBaySanDiego,SAN DIEGO,Boulder Creek,Southern California Stormwater Monitoring Coalition,0,0,0,0,0,0,0,0,0,0,0,0,0,0,0,0,0,0,0,0,0,0,0,0,0,0,0,0,0,0,0,0,0,0,0,0,0,0,0,0,0,0,0,0,0,0,0,0,0,0,0,0,0,0,0,0,0,0,0,0,0,0,0,0,0,0,0,0,0,0,0,0,0,0,0,0,0,0,0,0,0,0,0,0,0,0
-117.193586,32.890367,72,SMC04806,7/11/13,32.890367,-117.193586,Urban,8.26323917,South_Coast,CentralSanDiego,SAN DIEGO,Carroll Creek,Southern California Stormwater Monitoring Coalition,24,3,0,0,0,0,0,2,0,19,0,1,1,0,0,0,0,0,0,0,0,0,0,0,0,0,0,0,0,0,0,0,0,0,0,0,0,0,0,0,0,0,0,0,0,0,0,0,3,0,0,0,6,0,1,0,1,0,1,2,0,1,0,6,0,0,0,0,0,0,0,0,0,1,0,0,0,0,0,0,0,0,0,0,0,0
-118.939435,34.404915,73,SMC04868,6/15/11,34.404915,-118.939435,Ag,1.0296417,South_Coast,SantaClara,VENTURA,Sespe Creek (lower),Southern California Stormwater Monitoring Coalition,19,0,0,0,0,0,1,0,1,11,6,0,0,0,0,0,0,0,0,0,0,0,6,0,0,0,0,0,0,0,0,0,0,0,0,0,1,0,0,0,0,0,0,0,0,0,0,0,0,0,0,0,4,0,1,3,0,0,0,1,0,0,0,2,0,0,0,0,0,0,0,0,0,0,0,0,0,0,1,0,0,0,0,0,0,0
-118.09829,34.308848,74,SMC04880,6/6/12,34.308848,-118.09829,Open,2.37724297,South_Coast,LosAngeles,LOS ANGELES,Big Tujunga Creek,Southern California Stormwater Monitoring Coalition,0,0,0,0,0,0,0,0,0,0,0,0,0,0,0,0,0,0,0,0,0,0,0,0,0,0,0,0,0,0,0,0,0,0,0,0,0,0,0,0,0,0,0,0,0,0,0,0,0,0,0,0,0,0,0,0,0,0,0,0,0,0,0,0,0,0,0,0,0,0,0,0,0,0,0,0,0,0,0,0,0,0,0,0,0,0
-117.162704,33.033129,75,SMC04934,7/12/13,33.033129,-117.162704,Urban,3.3229048,South_Coast,CentralSanDiego,SAN DIEGO,San Dieguito Creek,Southern California Stormwater Monitoring Coalition,0,0,0,0,0,0,0,0,0,0,0,0,0,0,0,0,0,0,0,0,0,0,0,0,0,0,0,0,0,0,0,0,0,0,0,0,0,0,0,0,0,0,0,0,0,0,0,0,0,0,0,0,0,0,0,0,0,0,0,0,0,0,0,0,0,0,0,0,0,0,0,0,0,0,0,0,0,0,0,0,0,0,0,0,0,0
-117.934666,34.240519,76,SMC04972,7/1/13,34.240519,-117.934666,Open,2.96271964,South_Coast,SanGabriel,LOS ANGELES,West Fork San Gabriel River,Southern California Stormwater Monitoring Coalition,0,0,0,0,0,0,0,0,0,0,0,0,0,0,0,0,0,0,0,0,0,0,0,0,0,0,0,0,0,0,0,0,0,0,0,0,0,0,0,0,0,0,0,0,0,0,0,0,0,0,0,0,0,0,0,0,0,0,0,0,0,0,0,0,0,0,0,0,0,0,0,0,0,0,0,0,0,0,0,0,0,0,0,0,0,0
-117.107772,33.112709,77,SMC05017,7/19/13,33.112709,-117.107772,Urban,3.7549644,South_Coast,CentralSanDiego,SAN DIEGO,Escondido Creek,Southern California Stormwater Monitoring Coalition,23,2,1,0,0,1,0,1,0,17,1,1,0,0,0,0,0,0,0,0,0,0,0,0,0,0,0,0,0,0,0,0,0,0,1,0,0,0,0,0,0,0,0,0,0,0,0,0,2,1,0,0,3,0,0,3,0,0,0,3,0,0,0,7,0,0,0,0,0,0,0,0,0,0,0,0,1,1,0,0,0,0,0,0,0,0
-118.176577,34.232029,78,SMC05020,7/15/13,34.232029,-118.176577,Open,2.9941967,South_Coast,LosAngeles,LOS ANGELES,Arroyo Seco,Southern California Stormwater Monitoring Coalition,0,0,0,0,0,0,0,0,0,0,0,0,0,0,0,0,0,0,0,0,0,0,0,0,0,0,0,0,0,0,0,0,0,0,0,0,0,0,0,0,0,0,0,0,0,0,0,0,0,0,0,0,0,0,0,0,0,0,0,0,0,0,0,0,0,0,0,0,0,0,0,0,0,0,0,0,0,0,0,0,0,0,0,0,0,0
-117.009682,34.182821,79,SMC05127,6/11/13,34.182821,-117.009682,Open,1.13036222,South_Coast,UpperSantaAna,SAN BERNARDINO,Bear Creek,Southern California Stormwater Monitoring Coalition,0,0,0,0,0,0,0,0,0,0,0,0,0,0,0,0,0,0,0,0,0,0,0,0,0,0,0,0,0,0,0,0,0,0,0,0,0,0,0,0,0,0,0,0,0,0,0,0,0,0,0,0,0,0,0,0,0,0,0,0,0,0,0,0,0,0,0,0,0,0,0,0,0,0,0,0,0,0,0,0,0,0,0,0,0,0
-116.613469,32.845269,80,SMC05146,7/10/12,32.845269,-116.613469,Open,2.64018999,South_Coast,SouthernSanDiego,SAN DIEGO,Sweetwater River,Southern California Stormwater Monitoring Coalition,2,0,0,1,0,0,0,0,0,1,0,0,0,0,0,0,0,0,0,0,0,0,0,0,0,0,0,0,0,0,0,0,0,0,0,0,0,0,0,0,0,0,0,0,0,0,0,0,0,0,0,0,0,0,0,0,0,0,0,1,0,0,0,0,0,0,0,0,0,0,0,0,0,0,0,0,0,0,0,0,0,0,0,0,1,0
-117.255719,33.581834,81,SMC05165,6/22/11,33.581834,-117.255719,Urban,1.46102589,South_Coast,NorthernSanDiego,RIVERSIDE,Slaughterhouse Cyn Creek,Southern California Stormwater Monitoring Coalition,18,0,0,4,0,0,0,1,3,10,0,0,0,0,0,0,0,0,0,0,0,0,0,0,0,0,0,0,0,0,0,0,0,0,0,0,1,0,0,0,0,1,0,1,0,0,0,0,0,0,0,0,4,0,0,0,0,0,0,3,0,0,0,3,0,0,0,0,0,0,1,0,0,0,0,0,0,0,0,0,0,0,0,0,4,0
-117.283647,33.397108,82,SMC05173,5/17/11,33.397108,-117.283647,Open,1.42556761,South_Coast,NorthernSanDiego,SAN DIEGO,Santa Margarita River,Southern California Stormwater Monitoring Coalition,3,0,0,0,0,2,0,0,0,1,0,0,0,0,0,0,0,0,0,0,0,0,0,0,0,0,0,0,0,0,0,0,0,0,0,2,0,0,0,0,0,0,0,0,0,0,0,0,0,0,0,0,0,0,0,0,0,0,0,0,0,0,0,1,0,0,0,0,0,0,0,0,0,0,0,0,0,0,0,0,0,0,0,0,0,0
-117.750774,33.873084,83,SMC05230,7/2/12,33.873084,-117.750774,Urban,0.78985499,South_Coast,LowerSantaAna,ORANGE,Santa A River,Southern California Stormwater Monitoring Coalition,23,0,0,0,0,0,0,4,1,18,0,1,2,0,0,0,0,0,0,0,0,0,0,0,0,0,0,0,0,0,0,0,0,0,0,0,0,0,0,0,0,1,0,0,0,0,0,0,0,0,0,0,4,0,3,0,0,0,0,3,0,0,0,7,0,1,0,0,0,0,0,0,0,1,0,0,0,0,0,0,0,0,0,0,0,0
-117.370757,33.961957,238,SMC00957,10/1/13,33.961957,-117.370757,Urban,1.73034524,South_Coast,MiddleSantaAna,RIVERSIDE,,Coastkeepers,52,2,0,0,2,3,0,9,3,29,4,3,2,0,0,0,0,0,0,0,0,0,4,0,0,0,0,0,1,0,0,0,0,0,0,3,0,0,0,0,0,4,0,0,0,0,0,0,2,0,0,0,1,0,4,1,3,0,0,0,0,1,0,19,0,0,2,0,0,0,0,0,0,0,0,1,0,0,0,0,0,0,1,0,0,0
-117.779134,33.727772,84,SMC05379,6/15/12,33.727772,-117.779134,Urban,0.70172707,South_Coast,LowerSantaAna,ORANGE,Peters Canyon Wash,Southern California Stormwater Monitoring Coalition,8,0,0,2,0,0,0,0,0,5,1,0,0,0,0,0,0,1,0,0,0,0,1,0,0,0,0,0,0,0,0,0,0,0,0,0,0,0,0,0,0,0,0,0,0,0,0,0,0,0,0,0,0,0,0,1,1,0,1,1,0,0,0,1,0,0,0,0,0,0,0,0,0,0,0,0,0,0,0,0,0,0,0,0,1,0
-117.015477,34.165637,85,SMC05383,6/10/13,34.165637,-117.015477,Open,1.13036222,South_Coast,UpperSantaAna,SAN BERNARDINO,Bear Creek,Southern California Stormwater Monitoring Coalition,0,0,0,0,0,0,0,0,0,0,0,0,0,0,0,0,0,0,0,0,0,0,0,0,0,0,0,0,0,0,0,0,0,0,0,0,0,0,0,0,0,0,0,0,0,0,0,0,0,0,0,0,0,0,0,0,0,0,0,0,0,0,0,0,0,0,0,0,0,0,0,0,0,0,0,0,0,0,0,0,0,0,0,0,0,0
-116.573111,32.804685,86,SMC05402,7/28/11,32.804685,-116.573111,Open,1.4546987,South_Coast,SouthernSanDiego,SAN DIEGO,Pine Valley Creek,Southern California Stormwater Monitoring Coalition,0,0,0,0,0,0,0,0,0,0,0,0,0,0,0,0,0,0,0,0,0,0,0,0,0,0,0,0,0,0,0,0,0,0,0,0,0,0,0,0,0,0,0,0,0,0,0,0,0,0,0,0,0,0,0,0,0,0,0,0,0,0,0,0,0,0,0,0,0,0,0,0,0,0,0,0,0,0,0,0,0,0,0,0,0,0
-116.742466,32.97974,87,SMC05514,5/18/11,32.97974,-116.742466,Open,0.62886372,South_Coast,MissionBaySanDiego,SAN DIEGO,San Diego River,Southern California Stormwater Monitoring Coalition,0,0,0,0,0,0,0,0,0,0,0,0,0,0,0,0,0,0,0,0,0,0,0,0,0,0,0,0,0,0,0,0,0,0,0,0,0,0,0,0,0,0,0,0,0,0,0,0,0,0,0,0,0,0,0,0,0,0,0,0,0,0,0,0,0,0,0,0,0,0,0,0,0,0,0,0,0,0,0,0,0,0,0,0,0,0
-118.222031,34.282339,88,SMC05640,6/17/13,34.282339,-118.222031,Open,2.37724297,South_Coast,LosAngeles,LOS ANGELES,Big Tujunga Creek,Southern California Stormwater Monitoring Coalition,39,6,0,0,2,2,0,12,2,10,5,0,0,0,2,0,0,0,0,0,0,0,5,0,0,0,0,0,0,0,0,3,0,0,2,0,0,0,0,0,12,0,0,0,0,0,2,0,3,0,0,0,3,0,1,0,0,0,0,1,0,0,0,5,0,0,0,0,0,0,0,0,0,0,0,0,0,0,0,0,0,0,0,0,0,0
-118.318558,34.319046,89,SMC05848,6/18/13,34.319046,-118.318558,Open,2.9941967,South_Coast,LosAngeles,LOS ANGELES,Gold Creek,Southern California Stormwater Monitoring Coalition,2,0,0,0,0,0,0,2,0,0,0,0,0,0,0,0,0,0,0,0,0,0,0,0,0,0,0,0,0,0,0,0,0,0,0,0,0,0,0,0,0,0,2,0,0,0,0,0,0,0,0,0,0,0,0,0,0,0,0,0,0,0,0,0,0,0,0,0,0,0,0,0,0,0,0,0,0,0,0,0,0,0,0,0,0,0
-117.676019,34.191524,90,SMC05856,6/13/13,34.191524,-117.676019,Open,0.98049731,South_Coast,MiddleSantaAna,LOS ANGELES,San Antonio Creek,Southern California Stormwater Monitoring Coalition,1,0,0,1,0,0,0,0,0,0,0,0,0,0,0,0,0,0,0,0,0,0,0,0,0,0,0,0,0,0,0,0,0,0,0,0,0,0,0,0,0,0,0,0,0,0,0,0,0,0,0,0,0,0,0,0,0,0,0,0,0,0,0,0,0,0,0,0,0,0,0,0,0,0,0,0,0,0,0,0,0,0,0,0,1,0
-117.805548,34.234895,91,SMC05968,7/1/13,34.234895,-117.805548,Open,3.74136339,South_Coast,SanGabriel,LOS ANGELES,San Gabriel River,Southern California Stormwater Monitoring Coalition,11,0,0,1,0,0,0,0,0,10,0,0,0,0,0,0,0,0,0,0,0,0,0,0,0,0,0,0,0,0,0,0,0,0,0,0,0,0,0,0,0,0,0,0,0,0,0,0,0,0,0,0,0,0,1,0,0,0,0,1,0,1,0,6,0,0,0,0,0,0,0,0,0,1,0,0,0,0,0,0,0,0,0,0,1,0
-118.174132,34.21452,92,SMC06044,6/17/13,34.21452,-118.174132,Open,2.9941967,South_Coast,LosAngeles,LOS ANGELES,Arroyo Seco,Southern California Stormwater Monitoring Coalition,0,0,0,0,0,0,0,0,0,0,0,0,0,0,0,0,0,0,0,0,0,0,0,0,0,0,0,0,0,0,0,0,0,0,0,0,0,0,0,0,0,0,0,0,0,0,0,0,0,0,0,0,0,0,0,0,0,0,0,0,0,0,0,0,0,0,0,0,0,0,0,0,0,0,0,0,0,0,0,0,0,0,0,0,0,0
-116.813079,33.264518,93,SMC06113,6/20/12,33.264518,-116.813079,Open,2.42465262,South_Coast,NorthernSanDiego,SAN DIEGO,San Luis Rey River,Southern California Stormwater Monitoring Coalition,1,0,0,0,0,0,0,0,1,0,0,0,0,0,0,0,0,0,0,0,0,0,0,0,0,0,0,0,0,0,0,0,0,0,0,0,0,0,0,0,0,0,0,0,0,0,0,0,0,0,0,0,0,0,0,0,0,0,0,0,0,0,0,0,0,0,0,0,0,0,1,0,0,0,0,0,0,0,0,0,0,0,0,0,0,0
-119.240503,34.55464,94,SMC06139,6/27/12,34.55464,-119.240503,Open,2.42781621,South_Coast,SantaClara,VENTURA,Sespe Creek,Southern California Stormwater Monitoring Coalition,0,0,0,0,0,0,0,0,0,0,0,0,0,0,0,0,0,0,0,0,0,0,0,0,0,0,0,0,0,0,0,0,0,0,0,0,0,0,0,0,0,0,0,0,0,0,0,0,0,0,0,0,0,0,0,0,0,0,0,0,0,0,0,0,0,0,0,0,0,0,0,0,0,0,0,0,0,0,0,0,0,0,0,0,0,0
-117.430198,34.232986,95,SMC06231,6/6/13,34.232986,-117.430198,Open,1.13036222,South_Coast,UpperSantaAna,SAN BERNARDINO,Cajon Wash,Southern California Stormwater Monitoring Coalition,1,0,0,0,0,0,0,0,0,1,0,0,0,0,0,0,0,0,0,0,0,0,0,0,0,0,0,0,0,0,0,0,0,0,0,0,0,0,0,0,0,0,0,0,0,0,0,0,0,0,0,0,0,0,1,0,0,0,0,0,0,0,0,0,0,0,0,0,0,0,0,0,0,0,0,0,0,0,0,0,0,0,0,0,0,0
-118.860798,34.693866,96,SMC06283,6/13/12,34.693866,-118.860798,Open,2.37027444,South_Coast,SantaClara,VENTURA,Piru Creek,Southern California Stormwater Monitoring Coalition,0,0,0,0,0,0,0,0,0,0,0,0,0,0,0,0,0,0,0,0,0,0,0,0,0,0,0,0,0,0,0,0,0,0,0,0,0,0,0,0,0,0,0,0,0,0,0,0,0,0,0,0,0,0,0,0,0,0,0,0,0,0,0,0,0,0,0,0,0,0,0,0,0,0,0,0,0,0,0,0,0,0,0,0,0,0
-117.844095,34.266787,97,SMC06288,7/8/13,34.266787,-117.844095,Open,0.27357956,South_Coast,SanGabriel,LOS ANGELES,North Fork San Gabriel River,Southern California Stormwater Monitoring Coalition,154,9,2,0,8,2,2,10,2,116,3,3,2,0,0,0,0,0,0,0,0,1,1,0,0,0,0,0,2,0,0,4,0,0,0,2,0,2,2,0,5,0,0,0,0,0,3,0,5,0,0,0,11,0,6,10,10,0,3,7,6,0,0,29,0,2,0,0,0,0,0,0,0,34,0,3,0,0,0,1,0,0,0,0,0,0
-116.57126,32.912137,98,SMC06298,7/17/12,32.912137,-116.57126,Open,2.24344122,South_Coast,SouthernSanDiego,SAN DIEGO,Sweetwater River,Southern California Stormwater Monitoring Coalition,1,0,0,0,0,0,0,1,0,0,0,0,0,0,0,0,0,0,0,0,0,0,0,0,0,0,0,0,0,0,0,0,0,0,0,0,0,0,0,0,0,0,1,0,0,0,0,0,0,0,0,0,0,0,0,0,0,0,0,0,0,0,0,0,0,0,0,0,0,0,0,0,0,0,0,0,0,0,0,0,0,0,0,0,0,0
-117.853662,33.86699,99,SMC06302,6/28/12,33.86699,-117.853662,Urban,0.70360045,South_Coast,LowerSantaAna,ORANGE,Carbon Cyn Creek,Southern California Stormwater Monitoring Coalition,9,0,0,0,0,0,0,0,0,9,0,0,0,0,0,0,0,0,0,0,0,0,0,0,0,0,0,0,0,0,0,0,0,0,0,0,0,0,0,0,0,0,0,0,0,0,0,0,0,0,0,0,6,0,1,0,0,0,0,1,0,0,0,1,0,0,0,0,0,0,0,0,0,0,0,0,0,0,0,0,0,0,0,0,0,0
-119.310339,34.592231,100,SMC06315,6/27/12,34.592231,-119.310339,Open,2.42781621,South_Coast,SantaClara,VENTURA,Sespe Creek,Southern California Stormwater Monitoring Coalition,0,0,0,0,0,0,0,0,0,0,0,0,0,0,0,0,0,0,0,0,0,0,0,0,0,0,0,0,0,0,0,0,0,0,0,0,0,0,0,0,0,0,0,0,0,0,0,0,0,0,0,0,0,0,0,0,0,0,0,0,0,0,0,0,0,0,0,0,0,0,0,0,0,0,0,0,0,0,0,0,0,0,0,0,0,0
-117.017241,32.669016,101,SMC06458,9/29/13,32.669016,-117.017241,Urban,0.68334134,South_Coast,SouthernSanDiego,SAN DIEGO,,Coastkeepers,86,8,1,1,0,33,0,1,1,39,2,0,0,0,0,1,1,0,0,0,0,0,2,1,0,0,0,0,0,0,0,0,0,0,0,33,0,0,0,0,0,1,0,0,0,0,0,0,7,0,0,0,1,0,0,0,0,0,0,15,0,2,0,6,0,0,0,0,0,0,1,0,0,15,0,0,0,0,0,0,0,0,0,0,0,0
-118.923739,34.429633,102,SMC06660,6/14/12,34.429633,-118.923739,Ag,0.87708584,South_Coast,SantaClara,VENTURA,Sespe Creek,Southern California Stormwater Monitoring Coalition,16,2,0,0,0,0,0,0,0,12,2,0,0,0,0,0,0,0,0,0,0,0,2,0,0,0,0,0,0,0,0,0,0,0,0,0,0,0,0,0,0,0,0,0,0,0,0,0,2,0,0,0,8,0,3,0,0,0,0,1,0,0,0,0,0,0,0,0,0,0,0,0,0,0,0,0,0,0,0,0,0,0,0,0,0,0
-117.469381,34.261882,103,SMC06679,6/6/13,34.261882,-117.469381,Open,1.13036222,South_Coast,UpperSantaAna,SAN BERNARDINO,Cajon Wash,Southern California Stormwater Monitoring Coalition,6,0,0,0,0,0,0,1,0,5,0,0,1,0,0,0,0,0,0,0,0,0,0,0,0,0,0,0,0,0,0,0,0,0,0,0,0,0,0,0,0,0,0,0,0,0,0,0,0,0,0,0,2,0,1,1,0,0,0,0,0,0,0,1,0,0,0,0,0,0,0,0,0,0,0,0,0,0,0,0,0,0,0,0,0,0
-116.646872,32.830396,104,SMC06794,7/18/12,32.830396,-116.646872,Open,2.24344122,South_Coast,SouthernSanDiego,SAN DIEGO,Sweetwater River,Southern California Stormwater Monitoring Coalition,1,0,0,0,0,0,0,0,0,1,0,0,0,0,0,0,0,0,0,0,0,0,0,0,0,0,0,0,0,0,0,0,0,0,0,0,0,0,0,0,0,0,0,0,0,0,0,0,0,0,0,0,0,0,0,0,0,0,0,1,0,0,0,0,0,0,0,0,0,0,0,0,0,0,0,0,0,0,0,0,0,0,0,0,0,0
-117.741447,33.531543,105,SMC06798,5/19/11,33.531543,-117.741447,Open,1.05477219,South_Coast,SanJuan,ORANGE,Aliso Creek,Southern California Stormwater Monitoring Coalition,24,0,0,0,0,0,1,5,0,16,2,2,3,0,0,0,0,0,0,0,0,0,0,0,0,0,0,0,0,0,0,0,0,0,0,0,0,0,1,0,0,0,0,0,0,0,0,0,0,0,0,0,0,0,1,0,1,0,0,0,1,1,0,12,0,0,0,0,2,0,0,0,0,0,0,0,0,0,0,0,0,0,0,0,0,0
-117.675428,33.550524,106,SMC06851,6/16/11,33.550524,-117.675428,Urban,2.54509217,South_Coast,SanJuan,ORANGE,Oso Creek,Southern California Stormwater Monitoring Coalition,85,0,0,3,0,0,0,13,15,54,0,1,12,0,0,0,0,0,0,0,0,0,0,0,0,0,0,0,0,0,0,0,0,0,0,0,1,0,0,0,0,0,0,0,0,0,0,0,0,0,0,0,23,0,6,5,1,0,1,3,3,2,0,6,0,1,1,0,0,0,12,0,0,4,0,0,0,0,0,0,0,0,0,0,3,0
-117.395796,33.553349,107,SMC06969,6/20/12,33.553349,-117.395796,Open,3.10999016,South_Coast,SanJuan,RIVERSIDE,San Mateo Creek,Southern California Stormwater Monitoring Coalition,1,0,0,0,0,0,0,0,0,1,0,0,0,0,0,0,0,0,0,0,0,0,0,0,0,0,0,0,0,0,0,0,0,0,0,0,0,0,0,0,0,0,0,0,0,0,0,0,0,0,0,0,1,0,0,0,0,0,0,0,0,0,0,0,0,0,0,0,0,0,0,0,0,0,0,0,0,0,0,0,0,0,0,0,0,0
-118.757717,34.6092,108,SMC07024,6/13/12,34.6092,-118.757717,Open,2.37027444,South_Coast,SantaClara,LOS ANGELES,Piru Creek,Southern California Stormwater Monitoring Coalition,0,0,0,0,0,0,0,0,0,0,0,0,0,0,0,0,0,0,0,0,0,0,0,0,0,0,0,0,0,0,0,0,0,0,0,0,0,0,0,0,0,0,0,0,0,0,0,0,0,0,0,0,0,0,0,0,0,0,0,0,0,0,0,0,0,0,0,0,0,0,0,0,0,0,0,0,0,0,0,0,0,0,0,0,0,0
-117.517059,33.883821,109,SMC07085,6/21/11,33.883821,-117.517059,Urban,1.06113912,South_Coast,MiddleSantaAna,RIVERSIDE,Arlington Channel,Southern California Stormwater Monitoring Coalition,82,2,0,0,0,42,0,0,0,37,1,0,0,0,0,0,0,0,0,0,0,0,1,0,0,0,0,0,0,0,0,0,0,0,0,42,0,0,0,0,0,0,0,0,0,0,0,0,2,0,0,0,4,0,0,0,0,0,0,10,1,0,0,15,0,0,0,0,0,0,0,0,0,7,0,0,0,0,0,0,0,0,0,0,0,0
-119.166639,34.562082,110,SMC07227,6/27/12,34.562082,-119.166639,Open,2.42781621,South_Coast,SantaClara,VENTURA,Sespe Creek,Southern California Stormwater Monitoring Coalition,0,0,0,0,0,0,0,0,0,0,0,0,0,0,0,0,0,0,0,0,0,0,0,0,0,0,0,0,0,0,0,0,0,0,0,0,0,0,0,0,0,0,0,0,0,0,0,0,0,0,0,0,0,0,0,0,0,0,0,0,0,0,0,0,0,0,0,0,0,0,0,0,0,0,0,0,0,0,0,0,0,0,0,0,0,0
-117.614058,33.947335,111,SMC07485,6/4/13,33.947335,-117.614058,Ag,0.8057192,South_Coast,MiddleSantaAna,SAN BERNARDINO,Cucamonga Creek,Southern California Stormwater Monitoring Coalition,98,0,0,0,0,0,0,8,2,88,0,4,1,0,0,0,0,0,0,0,1,0,0,0,0,0,0,0,0,0,0,0,0,0,0,0,0,0,0,0,1,0,1,0,0,0,0,0,0,0,0,0,56,0,1,0,1,0,1,12,0,3,0,14,0,0,0,0,0,0,1,0,0,0,0,0,0,0,0,0,0,0,0,1,0,0
-117.853601,33.819517,112,SMC08094,6/28/12,33.819517,-117.853601,Urban,0.92112577,South_Coast,LowerSantaAna,ORANGE,Collins Channel,Southern California Stormwater Monitoring Coalition,110,7,0,2,6,4,0,16,2,65,8,1,7,1,0,0,0,0,0,0,0,0,4,0,2,0,3,0,0,1,0,0,0,0,0,4,1,0,0,0,0,6,0,0,0,0,6,0,7,0,0,0,25,0,0,2,1,0,1,10,0,0,0,18,0,0,1,0,1,0,0,0,0,7,0,0,0,0,0,0,0,0,0,1,0,0
-117.264841,33.539134,113,SMC08157,6/22/11,33.539134,-117.264841,Open,3.0239607,South_Coast,NorthernSanDiego,RIVERSIDE,Cole Creek,Southern California Stormwater Monitoring Coalition,0,0,0,0,0,0,0,0,0,0,0,0,0,0,0,0,0,0,0,0,0,0,0,0,0,0,0,0,0,0,0,0,0,0,0,0,0,0,0,0,0,0,0,0,0,0,0,0,0,0,0,0,0,0,0,0,0,0,0,0,0,0,0,0,0,0,0,0,0,0,0,0,0,0,0,0,0,0,0,0,0,0,0,0,0,0
-117.304332,34.073347,114,SMC08183,6/3/13,34.073347,-117.304332,Urban,0.57758972,South_Coast,MiddleSantaAna,SAN BERNARDINO,Warm Creek,Southern California Stormwater Monitoring Coalition,32,0,0,0,0,25,0,1,0,6,0,0,1,0,0,0,0,0,0,0,0,0,0,0,0,0,0,0,0,0,0,0,0,0,25,0,0,0,0,0,0,0,0,0,0,0,0,0,0,0,0,0,2,0,0,2,0,0,0,2,0,0,0,0,0,0,0,0,0,0,0,0,0,0,0,0,0,0,0,0,0,0,0,0,0,0
-117.819955,33.796298,115,SMC08414,7/3/12,33.796298,-117.819955,Urban,0.92112577,South_Coast,LowerSantaAna,ORANGE,Santiago Creek,Southern California Stormwater Monitoring Coalition,18,1,0,1,0,0,0,2,1,12,1,2,0,0,0,0,0,1,0,0,0,0,1,0,0,0,0,0,0,0,0,0,0,0,0,0,1,0,0,0,0,0,0,0,0,0,0,0,1,0,0,0,0,0,1,0,0,0,0,4,1,1,0,5,0,0,0,0,0,0,0,0,0,0,0,0,0,0,0,0,0,0,0,0,0,0
-117.461789,34.217107,116,SMC08727,6/5/13,34.217107,-117.461789,Open,0.19854598,South_Coast,MiddleSantaAna,SAN BERNARDINO,Lytle Creek,Southern California Stormwater Monitoring Coalition,26,0,0,0,3,8,0,1,0,14,0,0,0,0,0,0,0,0,0,0,0,0,0,0,0,0,0,0,2,0,0,0,0,0,2,6,0,0,0,0,0,1,0,0,0,0,1,0,0,0,0,0,7,0,1,2,0,0,0,1,2,0,0,1,0,0,0,0,0,0,0,0,0,0,0,0,0,0,0,0,0,0,0,0,0,0
-117.795747,33.713352,117,SMC09091,6/22/13,33.713352,-117.795747,Urban,0.91855812,South_Coast,LowerSantaAna,ORANGE,Peter's Canyon Wash,Southern California Stormwater Monitoring Coalition,81,2,0,0,1,0,0,0,0,76,2,0,0,0,0,0,0,0,0,0,0,0,2,0,0,0,0,0,0,1,0,0,0,0,0,0,0,0,0,0,0,0,0,0,0,0,1,0,2,0,0,0,23,0,0,5,3,0,3,4,1,0,0,34,0,0,0,0,0,0,0,0,0,1,0,0,0,1,0,0,0,0,0,0,0,0
-117.86259,33.808766,118,SMC09118,5/28/13,33.808766,-117.86259,Urban,0.92112577,South_Coast,LowerSantaAna,ORANGE,Collins Channel,Southern California Stormwater Monitoring Coalition,263,0,0,0,0,84,0,5,5,164,5,0,5,0,0,0,0,0,0,0,0,0,5,0,0,0,0,0,0,0,0,0,0,0,5,79,0,0,0,0,0,0,0,0,0,0,0,0,0,0,0,0,41,0,1,1,3,0,13,7,0,0,0,70,0,4,0,0,0,0,1,0,0,28,0,0,0,0,0,0,0,0,0,0,0,0
-116.709882,32.840879,119,SMC09162,8/1/11,32.840879,-116.709882,Urban,0.75430935,South_Coast,SouthernSanDiego,SAN DIEGO,Viejas Creek,Southern California Stormwater Monitoring Coalition,0,0,0,0,0,0,0,0,0,0,0,0,0,0,0,0,0,0,0,0,0,0,0,0,0,0,0,0,0,0,0,0,0,0,0,0,0,0,0,0,0,0,0,0,0,0,0,0,0,0,0,0,0,0,0,0,0,0,0,0,0,0,0,0,0,0,0,0,0,0,0,0,0,0,0,0,0,0,0,0,0,0,0,0,0,0
-117.002,32.83971,120,SMC09174,6/13/12,32.83971,-117.002,Urban,1.86701805,South_Coast,MissionBaySanDiego,SAN DIEGO,Forrester Creek,Southern California Stormwater Monitoring Coalition,98,4,0,5,2,5,0,6,1,72,3,0,4,1,0,0,0,0,0,0,0,1,0,0,0,0,0,0,0,0,0,0,0,0,5,0,0,0,0,0,0,0,1,0,0,0,1,0,4,2,0,0,15,0,12,0,2,0,4,16,0,0,0,19,0,0,0,0,0,0,1,0,0,2,0,1,0,2,0,0,0,0,0,0,5,0
-117.128863,33.562524,121,SMC09325,6/21/12,33.562524,-117.128863,Ag,1.75876913,South_Coast,NorthernSanDiego,RIVERSIDE,Tucalota Creek,Southern California Stormwater Monitoring Coalition,0,0,0,0,0,0,0,0,0,0,0,0,0,0,0,0,0,0,0,0,0,0,0,0,0,0,0,0,0,0,0,0,0,0,0,0,0,0,0,0,0,0,0,0,0,0,0,0,0,0,0,0,0,0,0,0,0,0,0,0,0,0,0,0,0,0,0,0,0,0,0,0,0,0,0,0,0,0,0,0,0,0,0,0,0,0
-116.733559,33.705409,122,SMC10146,6/28/11,33.705409,-116.733559,Open,0.62454535,South_Coast,SanJacinto,RIVERSIDE,Coldwater Creek,Southern California Stormwater Monitoring Coalition,7,0,0,0,0,1,0,2,2,2,0,0,1,1,0,0,0,0,0,0,1,0,0,0,0,0,0,0,0,0,0,0,0,0,1,0,1,0,0,0,0,0,0,0,0,0,0,0,0,0,0,0,1,0,0,1,0,0,0,0,0,0,0,0,0,0,0,0,0,0,0,0,0,0,0,0,0,0,0,0,0,0,0,0,0,0
-117.698455,33.648887,123,SMC10259,6/7/12,33.648887,-117.698455,Urban,2.33789757,South_Coast,LowerSantaAna,ORANGE,Serrano Creek,Southern California Stormwater Monitoring Coalition,113,4,0,0,0,1,0,5,0,103,0,4,1,0,0,0,0,0,0,0,0,0,0,0,0,0,0,0,0,0,0,0,0,0,1,0,0,0,0,0,0,0,0,0,0,0,0,0,4,0,0,0,13,0,1,0,2,0,0,56,0,0,0,29,0,0,0,0,0,0,0,0,0,2,0,0,0,0,0,0,0,0,0,0,0,0
-117.502968,33.888827,124,SMC11181,6/21/11,33.888827,-117.502968,Urban,1.06113912,South_Coast,MiddleSantaAna,RIVERSIDE,Arlington Channel,Southern California Stormwater Monitoring Coalition,40,3,0,0,0,1,0,0,0,34,2,0,0,0,0,0,0,0,0,0,0,0,2,0,0,0,0,0,0,0,0,0,0,0,0,1,0,0,0,0,0,0,0,0,0,0,0,0,3,0,0,0,7,0,1,4,0,0,0,8,0,0,0,7,0,0,0,0,0,0,0,0,0,7,0,0,0,0,0,0,0,0,0,0,0,0
-116.767804,33.712959,125,SMC11394,6/30/11,33.712959,-116.767804,Open,0.62454535,South_Coast,SanJacinto,RIVERSIDE,Strawberry Creek,Southern California Stormwater Monitoring Coalition,0,0,0,0,0,0,0,0,0,0,0,0,0,0,0,0,0,0,0,0,0,0,0,0,0,0,0,0,0,0,0,0,0,0,0,0,0,0,0,0,0,0,0,0,0,0,0,0,0,0,0,0,0,0,0,0,0,0,0,0,0,0,0,0,0,0,0,0,0,0,0,0,0,0,0,0,0,0,0,0,0,0,0,0,0,0
-116.860048,32.848374,126,SMC11430,5/12/12,32.848374,-116.860048,Urban,1.86701805,South_Coast,MissionBaySanDiego,SAN DIEGO,Los Coches Creek,Southern California Stormwater Monitoring Coalition,26,1,0,0,0,1,0,7,0,17,0,7,0,0,0,0,0,0,0,0,0,0,0,0,0,0,0,0,0,0,0,0,0,0,1,0,0,0,0,0,0,0,0,0,0,0,0,0,1,0,0,0,4,0,0,0,2,0,1,3,0,0,0,5,0,0,0,0,0,0,0,0,0,2,0,0,0,0,0,0,0,0,0,0,0,0
-117.277966,33.464602,127,SMC11593,6/21/12,33.464602,-117.277966,Ag,1.67395411,South_Coast,NorthernSanDiego,RIVERSIDE,DeLuz Ranch,Southern California Stormwater Monitoring Coalition,1,0,0,0,0,0,0,0,0,1,0,0,0,0,0,0,0,0,0,0,0,0,0,0,0,0,0,0,0,0,0,0,0,0,0,0,0,0,0,0,0,0,0,0,0,0,0,0,0,0,0,0,0,0,0,0,0,0,0,0,0,1,0,0,0,0,0,0,0,0,0,0,0,0,0,0,0,0,0,0,0,0,0,0,0,0
-117.634825,33.509877,128,SMC11685,6/21/12,33.509877,-117.634825,Urban,1.02793105,South_Coast,SanJuan,ORANGE,San Juan Creek,Southern California Stormwater Monitoring Coalition,1,0,0,0,0,0,0,0,0,1,0,0,0,0,0,0,0,0,0,0,0,0,0,0,0,0,0,0,0,0,0,0,0,0,0,0,0,0,0,0,0,0,0,0,0,0,0,0,0,0,0,0,1,0,0,0,0,0,0,0,0,0,0,0,0,0,0,0,0,0,0,0,0,0,0,0,0,0,0,0,0,0,0,0,0,0
-118.708279,34.125293,129,SMC11880,6/7/11,34.125293,-118.708279,Urban,0.60657416,South_Coast,SantaMonica,LOS ANGELES,Las Virgenes,Southern California Stormwater Monitoring Coalition,9,0,0,0,0,0,0,0,1,4,4,0,0,0,1,0,0,0,0,0,0,0,4,0,0,0,0,0,0,0,0,0,0,0,0,0,0,0,0,0,0,0,0,0,0,0,0,0,0,0,0,0,0,0,3,1,0,0,0,0,0,0,0,0,0,0,0,0,0,0,0,0,0,0,0,0,0,0,0,0,0,0,0,0,0,0
-117.130139,33.099184,130,SMC12185,6/15/11,33.099184,-117.130139,Ag,1.27803827,South_Coast,CentralSanDiego,SAN DIEGO,Escondido Creek (urban),Southern California Stormwater Monitoring Coalition,145,2,0,80,0,0,1,5,7,50,0,1,2,0,0,0,0,0,0,0,0,0,0,0,80,0,0,0,0,0,0,0,0,0,0,0,4,0,0,0,0,1,1,0,0,0,0,0,2,0,0,0,8,0,1,0,2,0,0,6,1,0,0,27,0,0,2,0,0,0,1,0,0,5,0,0,0,0,1,0,0,0,0,0,0,0
-117.042847,32.839821,131,SMC12246,7/23/13,32.839821,-117.042847,Urban,1.82264824,South_Coast,MissionBaySanDiego,SAN DIEGO,San Diego River,Southern California Stormwater Monitoring Coalition,5,1,0,0,1,0,0,0,0,2,1,0,0,0,0,0,0,0,0,0,0,0,1,0,0,0,0,0,0,0,0,0,0,0,0,0,0,0,0,0,0,0,0,0,0,0,0,0,1,0,0,0,0,0,0,0,0,0,0,0,0,0,0,2,0,0,0,0,0,0,0,0,0,0,0,1,0,0,0,0,0,0,0,0,0,0
-118.111491,33.921483,132,SMC12862,6/27/11,33.921483,-118.111491,Urban,1.66656479,South_Coast,SanGabriel,LOS ANGELES,San Gabriel River,Southern California Stormwater Monitoring Coalition,178,2,4,2,1,119,0,33,0,14,3,1,0,0,0,0,2,0,0,0,0,1,0,1,0,0,1,0,0,0,0,0,0,0,0,119,0,0,0,0,1,10,1,0,0,7,0,0,2,0,2,0,2,0,0,1,0,0,0,8,1,1,0,1,0,0,0,0,1,0,0,0,0,0,0,1,0,0,0,0,0,0,0,13,1,0
-117.678484,33.477936,133,SMC12942,6/21/12,33.477936,-117.678484,Urban,1.02793105,South_Coast,SanJuan,ORANGE,San Juan Creek,Southern California Stormwater Monitoring Coalition,91,2,0,77,0,1,0,3,0,8,0,0,0,1,0,0,0,0,0,0,0,0,0,77,0,0,0,0,0,0,0,0,0,0,1,0,0,0,0,0,0,0,2,0,0,0,0,0,2,0,0,0,5,0,0,0,0,0,0,1,0,0,0,2,0,0,0,0,0,0,0,0,0,0,0,0,0,0,0,0,0,0,0,0,0,0
-117.195571,32.775505,134,SMC13062,7/23/13,32.775505,-117.195571,Urban,1.86701805,South_Coast,MissionBaySanDiego,SAN DIEGO,Tecolote Creek,Southern California Stormwater Monitoring Coalition,5,0,0,0,0,0,0,0,0,4,1,0,0,0,0,0,0,0,0,0,0,0,0,0,0,0,0,0,0,0,0,0,0,0,0,0,0,0,0,0,0,0,0,0,0,0,0,0,0,0,0,0,0,0,1,0,0,0,0,1,0,0,0,2,0,0,0,0,0,0,0,1,0,0,0,0,0,0,0,0,0,0,0,0,0,0
-118.931895,34.066349,135,SMC13076,6/28/12,34.066349,-118.931895,Open,0.74870346,South_Coast,SantaMonica,LOS ANGELES,Arroyo Sequit,Southern California Stormwater Monitoring Coalition,3,0,0,0,1,0,0,1,0,1,0,0,1,0,0,0,0,0,0,0,0,0,0,0,0,0,0,0,0,0,0,0,0,0,0,0,0,0,0,0,0,0,0,0,0,0,0,0,0,0,0,0,0,0,1,0,0,0,0,0,0,0,0,0,0,0,0,0,0,0,0,0,0,0,0,1,0,0,0,0,0,0,0,0,0,0
-117.802457,33.67808,136,SMC13187,6/4/13,33.67808,-117.802457,Urban,0.78985499,South_Coast,LowerSantaAna,ORANGE,San Diego Creek,Southern California Stormwater Monitoring Coalition,83,25,0,3,1,1,0,1,4,46,2,1,0,0,0,0,0,0,0,0,1,0,2,1,0,0,0,0,0,0,0,0,0,0,1,0,0,0,0,0,0,0,0,0,0,0,1,0,25,0,0,0,3,0,1,0,1,0,4,8,0,3,0,17,0,0,1,0,0,0,1,0,0,9,0,0,0,0,0,0,0,0,1,0,2,0
-117.872423,33.804533,137,SMC13214,5/22/13,33.804533,-117.872423,Urban,0.92112577,South_Coast,LowerSantaAna,ORANGE,Collins Channel,Southern California Stormwater Monitoring Coalition,140,0,0,0,0,0,0,1,1,130,8,0,1,0,0,0,0,0,0,0,0,0,8,0,0,0,0,0,0,0,0,0,0,0,0,0,0,0,0,0,0,0,0,0,0,0,0,0,0,0,0,0,12,0,1,7,1,0,6,7,0,2,0,46,0,0,1,0,0,0,0,0,0,48,0,0,0,0,0,0,0,0,0,0,0,0
-118.715946,34.098751,138,SMC13416,6/8/11,34.098751,-118.715946,Urban,0.60657416,South_Coast,SantaMonica,LOS ANGELES,Las Virgenes,Southern California Stormwater Monitoring Coalition,25,0,0,0,0,0,1,2,7,15,0,0,1,1,0,0,0,0,0,0,0,0,0,0,0,0,0,0,0,0,0,0,0,0,0,0,0,0,0,0,0,0,0,0,0,0,0,0,0,0,0,0,4,0,4,4,0,0,0,3,0,0,0,0,0,3,1,0,0,0,3,0,0,0,0,0,0,0,1,0,0,0,0,0,0,0
-118.103514,33.861193,139,SMC13630,6/21/12,33.861193,-118.103514,Urban,1.66656479,South_Coast,SanGabriel,LOS ANGELES,San Gabriel River,Southern California Stormwater Monitoring Coalition,30,1,0,0,0,2,0,1,0,4,22,0,0,0,0,0,0,0,0,0,0,0,22,0,0,0,0,0,0,0,0,0,0,0,0,2,0,0,0,0,0,1,0,0,0,0,0,0,1,0,0,0,4,0,0,0,0,0,0,0,0,0,0,0,0,0,0,0,0,0,0,0,0,0,0,0,0,0,0,0,0,0,0,0,0,0
-118.70292,34.075401,140,SMC13672,6/8/11,34.075401,-118.70292,Open,0.79538678,South_Coast,SantaMonica,LOS ANGELES,Malibu Creek,Southern California Stormwater Monitoring Coalition,89,4,0,0,0,12,0,8,6,50,9,0,4,0,0,0,0,0,0,0,0,0,9,0,0,0,0,0,0,0,0,0,0,0,7,5,0,0,0,0,3,1,0,0,0,0,0,0,4,0,0,0,12,0,10,5,0,0,0,4,0,0,0,10,0,4,0,0,0,0,2,0,0,5,0,0,0,4,0,0,0,0,0,0,0,0
-117.735584,33.627729,141,SMC14099,6/13/13,33.627729,-117.735584,Urban,1.76500751,South_Coast,LowerSantaAna,ORANGE,Cada Creek,Southern California Stormwater Monitoring Coalition,61,6,0,0,1,5,0,2,6,41,0,1,1,0,0,0,0,0,0,0,0,0,0,0,0,0,0,0,0,0,0,0,0,0,0,5,0,0,0,0,0,0,0,0,0,0,0,0,6,0,0,0,16,0,0,0,1,0,3,2,1,1,0,16,0,2,1,0,0,0,3,0,0,1,0,1,0,0,0,0,0,0,0,0,0,0
-117.821746,33.689404,142,SMC14211,6/4/13,33.689404,-117.821746,Urban,0.93984891,South_Coast,LowerSantaAna,ORANGE,San Diego Creek,Southern California Stormwater Monitoring Coalition,90,4,0,3,13,0,0,8,1,61,0,1,0,0,0,1,0,2,0,0,0,0,0,0,0,0,0,0,1,0,0,0,0,0,0,0,0,0,0,0,0,2,2,0,0,0,6,0,3,0,0,0,12,0,3,0,1,0,1,18,0,3,0,18,0,0,0,0,0,0,1,0,0,5,0,6,0,0,0,0,0,0,0,3,1,0
-116.736039,32.829985,143,SMC14218,7/11/12,32.829985,-116.736039,Urban,0.75430935,South_Coast,SouthernSanDiego,SAN DIEGO,Viejas Creek,Southern California Stormwater Monitoring Coalition,4,0,0,0,0,0,0,1,0,3,0,0,1,0,0,0,0,0,0,0,0,0,0,0,0,0,0,0,0,0,0,0,0,0,0,0,0,0,0,0,0,0,0,0,0,0,0,0,0,0,0,0,2,0,0,0,0,0,0,0,0,0,0,1,0,0,0,0,0,0,0,0,0,0,0,0,0,0,0,0,0,0,0,0,0,0
-118.700899,34.14268,144,SMC14952,6/15/11,34.14268,-118.700899,Urban,0.65955008,South_Coast,SantaMonica,LOS ANGELES,Las Virgenes,Southern California Stormwater Monitoring Coalition,41,5,0,0,0,4,2,0,1,11,18,0,0,0,0,0,0,0,1,0,0,0,18,0,0,0,0,0,0,0,0,0,0,0,4,0,0,0,0,0,0,0,0,0,0,0,0,0,5,0,0,0,1,0,8,0,1,0,0,1,0,0,0,0,0,0,0,2,0,0,0,0,0,0,0,0,0,0,0,0,0,0,0,0,0,0
-116.854448,33.117781,145,SMC15201,6/19/12,33.117781,-116.854448,Open,1.73526094,South_Coast,CentralSanDiego,SAN DIEGO,Santa Ysabel Creek,Southern California Stormwater Monitoring Coalition,0,0,0,0,0,0,0,0,0,0,0,0,0,0,0,0,0,0,0,0,0,0,0,0,0,0,0,0,0,0,0,0,0,0,0,0,0,0,0,0,0,0,0,0,0,0,0,0,0,0,0,0,0,0,0,0,0,0,0,0,0,0,0,0,0,0,0,0,0,0,0,0,0,0,0,0,0,0,0,0,0,0,0,0,0,0
-118.667771,34.096529,146,SMC15464,6/15/12,34.096529,-118.667771,Open,0.66605583,South_Coast,SantaMonica,LOS ANGELES,Cold Creek,Southern California Stormwater Monitoring Coalition,2,0,0,0,1,0,0,1,0,0,0,1,0,0,0,0,0,0,0,0,0,0,0,0,0,0,0,0,0,0,0,0,0,0,0,0,0,0,0,0,0,0,0,0,0,0,1,0,0,0,0,0,0,0,0,0,0,0,0,0,0,0,0,0,0,0,0,0,0,0,0,0,0,0,0,0,0,0,0,0,0,0,0,0,0,0
-118.090751,33.80989,147,SMC15678,6/25/13,33.80989,-118.090751,Urban,1.66656479,South_Coast,SanGabriel,LOS ANGELES,Spring Street Channel,Southern California Stormwater Monitoring Coalition,74,46,0,0,0,0,0,4,0,9,15,1,0,0,0,0,0,0,0,0,0,0,15,0,0,0,0,0,0,0,0,0,0,0,0,0,0,0,0,0,0,0,0,0,0,3,0,0,46,0,0,0,0,0,0,0,0,0,0,6,1,0,0,2,0,0,0,0,0,0,0,0,0,0,0,0,0,0,0,0,0,0,0,0,0,0
-117.522493,33.881907,148,SMC16045,6/28/12,33.881907,-117.522493,Urban,1.06113912,South_Coast,MiddleSantaAna,RIVERSIDE,Arlington Channel,Southern California Stormwater Monitoring Coalition,96,5,1,0,0,7,0,9,3,55,16,6,1,0,1,0,1,0,0,0,2,0,15,0,0,0,0,0,0,0,0,0,0,0,0,7,0,0,0,1,1,1,0,0,0,0,0,0,5,0,0,0,11,0,1,4,0,0,1,8,0,0,0,22,0,0,0,0,0,0,0,0,0,8,0,0,0,0,0,0,0,0,0,0,0,0
-117.593511,33.746559,149,SMC16169,6/3/13,33.746559,-117.593511,Open,1.35803673,South_Coast,LowerSantaAna,ORANGE,Silverado Creek,Southern California Stormwater Monitoring Coalition,3,0,0,1,0,0,0,0,0,2,0,0,0,0,0,0,0,0,0,0,0,0,0,0,0,0,0,0,0,0,0,0,0,0,0,0,0,0,0,0,0,0,0,0,0,0,0,0,0,0,0,0,0,0,0,0,0,0,0,0,2,0,0,0,0,0,0,0,0,0,0,0,0,0,0,0,0,0,0,0,0,0,0,0,1,0
-118.753172,34.125498,150,SMC16232,6/6/11,34.125498,-118.753172,Urban,0.60657416,South_Coast,SantaMonica,LOS ANGELES,Medea Creek,Southern California Stormwater Monitoring Coalition,100,0,1,0,0,0,0,0,7,92,0,0,0,0,0,0,0,0,0,0,1,0,0,0,0,0,0,0,0,4,0,0,0,0,0,0,0,1,0,0,0,0,0,0,0,0,0,0,0,0,0,0,20,0,3,3,6,0,7,19,0,0,0,16,0,6,0,0,0,0,0,0,0,6,0,0,0,8,0,0,0,0,0,0,0,0
-116.753133,32.818557,151,SMC16266,8/1/11,32.818557,-116.753133,Urban,0.75430935,South_Coast,SouthernSanDiego,SAN DIEGO,Viejas Creek,Southern California Stormwater Monitoring Coalition,1,0,0,0,0,0,0,0,0,1,0,0,0,0,0,0,0,0,0,0,0,0,0,0,0,0,0,0,0,0,0,0,0,0,0,0,0,0,0,0,0,0,0,0,0,0,0,0,0,0,0,0,1,0,0,0,0,0,0,0,0,0,0,0,0,0,0,0,0,0,0,0,0,0,0,0,0,0,0,0,0,0,0,0,0,0
-118.758128,34.531705,152,SMC16332,6/26/13,34.531705,-118.758128,Open,0.98790397,South_Coast,SantaClara,VENTURA,Piru Creek,Southern California Stormwater Monitoring Coalition,0,0,0,0,0,0,0,0,0,0,0,0,0,0,0,0,0,0,0,0,0,0,0,0,0,0,0,0,0,0,0,0,0,0,0,0,0,0,0,0,0,0,0,0,0,0,0,0,0,0,0,0,0,0,0,0,0,0,0,0,0,0,0,0,0,0,0,0,0,0,0,0,0,0,0,0,0,0,0,0,0,0,0,0,0,0
-118.845469,34.686704,153,SMC16493,6/24/13,34.686704,-118.845469,Open,2.37027444,South_Coast,SantaClara,VENTURA,Piru Creek,Southern California Stormwater Monitoring Coalition,0,0,0,0,0,0,0,0,0,0,0,0,0,0,0,0,0,0,0,0,0,0,0,0,0,0,0,0,0,0,0,0,0,0,0,0,0,0,0,0,0,0,0,0,0,0,0,0,0,0,0,0,0,0,0,0,0,0,0,0,0,0,0,0,0,0,0,0,0,0,0,0,0,0,0,0,0,0,0,0,0,0,0,0,0,0
-118.661072,34.410433,154,SMC16892,6/27/12,34.410433,-118.661072,Ag,1.27456862,South_Coast,SantaClara,LOS ANGELES,Santa Clara River,Southern California Stormwater Monitoring Coalition,3,0,0,0,0,0,0,0,0,3,0,0,0,0,0,0,0,0,0,0,0,0,0,0,0,0,0,0,0,0,0,0,0,0,0,0,0,0,0,0,0,0,0,0,0,0,0,0,0,0,0,0,1,0,0,0,0,0,0,1,0,0,0,1,0,0,0,0,0,0,0,0,0,0,0,0,0,0,0,0,0,0,0,0,0,0
-118.767716,34.42319,155,SMC16978,6/26/13,34.42319,-118.767716,Open,2.37027444,South_Coast,SantaClara,VENTURA,Piru Creek,Southern California Stormwater Monitoring Coalition,0,0,0,0,0,0,0,0,0,0,0,0,0,0,0,0,0,0,0,0,0,0,0,0,0,0,0,0,0,0,0,0,0,0,0,0,0,0,0,0,0,0,0,0,0,0,0,0,0,0,0,0,0,0,0,0,0,0,0,0,0,0,0,0,0,0,0,0,0,0,0,0,0,0,0,0,0,0,0,0,0,0,0,0,0,0
-118.780574,34.118309,156,SMC17016,6/5/13,34.118309,-118.780574,Open,0.66307207,South_Coast,SantaMonica,LOS ANGELES,Malibu Creek,Southern California Stormwater Monitoring Coalition,30,0,0,1,0,1,0,3,1,19,5,0,0,0,0,0,0,0,0,0,0,0,5,0,0,0,0,0,0,0,0,0,0,0,1,0,0,0,0,0,0,0,3,0,0,0,0,0,0,0,0,0,3,0,3,0,0,0,0,1,0,0,0,10,0,0,0,0,0,0,1,0,0,0,0,0,0,2,0,0,0,0,0,0,1,0
-118.684124,34.402676,157,SMC17378,6/27/12,34.402676,-118.684124,Ag,1.27456862,South_Coast,SantaClara,LOS ANGELES,Santa Clara River,Southern California Stormwater Monitoring Coalition,1,0,0,0,0,0,0,0,0,1,0,0,0,0,0,0,0,0,0,0,0,0,0,0,0,0,0,0,0,0,0,0,0,0,0,0,0,0,0,0,0,0,0,0,0,0,0,0,0,0,0,0,1,0,0,0,0,0,0,0,0,0,0,0,0,0,0,0,0,0,0,0,0,0,0,0,0,0,0,0,0,0,0,0,0,0
-118.632647,34.418874,158,SMC17692,6/12/13,34.418874,-118.632647,Ag,1.27456862,South_Coast,SantaClara,LOS ANGELES,Santa Clara River,Southern California Stormwater Monitoring Coalition,2,0,0,0,0,0,0,1,0,1,0,0,1,0,0,0,0,0,0,0,0,0,0,0,0,0,0,0,0,0,0,0,0,0,0,0,0,0,0,0,0,0,0,0,0,0,0,0,0,0,0,0,0,0,0,0,0,0,0,1,0,0,0,0,0,0,0,0,0,0,0,0,0,0,0,0,0,0,0,0,0,0,0,0,0,0
-118.856582,34.69441,159,SMC18093,6/24/13,34.69441,-118.856582,Open,2.37027444,South_Coast,SantaClara,VENTURA,Piru Creek,Southern California Stormwater Monitoring Coalition,0,0,0,0,0,0,0,0,0,0,0,0,0,0,0,0,0,0,0,0,0,0,0,0,0,0,0,0,0,0,0,0,0,0,0,0,0,0,0,0,0,0,0,0,0,0,0,0,0,0,0,0,0,0,0,0,0,0,0,0,0,0,0,0,0,0,0,0,0,0,0,0,0,0,0,0,0,0,0,0,0,0,0,0,0,0
-118.790484,34.1569,160,SMC18116,6/28/12,34.1569,-118.790484,Urban,0.65364223,South_Coast,SantaMonica,LOS ANGELES,Lindero Canyon,Southern California Stormwater Monitoring Coalition,4,0,0,0,0,0,0,0,1,3,0,0,0,0,0,0,0,0,0,0,0,0,0,0,0,0,0,0,0,0,0,0,0,0,0,0,0,0,0,0,0,0,0,0,0,0,0,0,0,0,0,0,1,0,0,0,0,0,0,1,0,0,0,1,0,0,0,0,0,0,1,0,0,0,0,0,0,0,0,0,0,0,0,0,0,0
-117.571911,33.891752,161,SMC18169,6/20/11,33.891752,-117.571911,Urban,0.57758972,South_Coast,MiddleSantaAna,RIVERSIDE,Temescal Wash,Southern California Stormwater Monitoring Coalition,174,0,0,2,1,0,4,16,12,138,1,0,4,0,0,0,0,0,1,0,0,0,0,0,0,0,0,0,0,0,0,0,0,0,0,0,2,0,0,0,0,11,1,2,0,0,1,0,0,0,0,0,28,0,0,18,0,0,3,3,0,1,0,16,0,0,0,1,0,0,7,1,0,69,0,0,0,0,3,0,0,0,0,0,2,0
-118.82051,34.132222,162,SMC18250,6/5/13,34.132222,-118.82051,Open,0.54679717,South_Coast,SantaMonica,LOS ANGELES,Potero Creek,Southern California Stormwater Monitoring Coalition,40,0,0,1,0,0,0,0,14,11,14,0,0,0,0,0,0,1,0,0,0,1,0,0,0,0,0,0,0,0,0,0,0,0,0,0,0,0,0,0,0,0,0,0,0,0,0,0,0,0,0,0,1,0,5,0,0,0,0,0,0,0,0,5,0,0,0,0,0,0,14,13,0,0,0,0,0,0,0,0,0,0,0,0,0,0
-118.531668,34.471281,163,SMC18656,6/12/13,34.471281,-118.531668,Urban,1.0002152,South_Coast,SantaClara,LOS ANGELES,Seco Canyon Channel,Southern California Stormwater Monitoring Coalition,46,0,0,0,1,0,0,0,1,41,3,0,0,0,0,0,0,0,0,0,0,0,3,0,0,0,0,0,0,0,0,0,0,0,0,0,0,0,0,0,0,0,0,0,0,0,0,0,0,0,0,0,2,0,1,1,0,0,0,2,0,0,0,6,0,0,0,0,0,0,1,0,0,29,0,1,0,0,0,0,0,0,0,0,0,0
-118.763755,34.172068,164,SMC18666,6/15/11,34.172068,-118.763755,Urban,0.52752872,South_Coast,SantaMonica,VENTURA,Medea Creek,Southern California Stormwater Monitoring Coalition,37,0,0,0,0,8,0,0,0,20,9,0,0,0,0,0,0,0,0,0,0,0,9,0,0,0,0,0,0,0,0,0,0,0,1,7,0,0,0,0,0,0,0,0,0,0,0,0,0,0,0,0,7,0,3,3,0,0,0,7,0,0,0,0,0,0,0,0,0,0,0,0,0,0,0,0,0,0,0,0,0,0,0,0,0,0
-116.98501,32.664054,165,SMC19228,7/16/12,32.664054,-116.98501,Ag,0.79853573,South_Coast,SouthernSanDiego,SAN DIEGO,Proctor Valley,Southern California Stormwater Monitoring Coalition,12,0,0,0,0,0,0,0,0,12,0,0,0,0,0,0,0,0,0,0,0,0,0,0,0,0,0,0,0,0,0,0,0,0,0,0,0,0,0,0,0,0,0,0,0,0,0,0,0,0,0,0,1,0,5,0,0,0,0,3,0,0,0,2,0,0,0,0,0,0,0,0,0,1,0,0,0,0,0,0,0,0,0,0,0,0
-117.788282,33.718666,166,SMC19286,6/9/13,33.718666,-117.788282,Urban,0.70172707,South_Coast,LowerSantaAna,ORANGE,Peter's Canyon Wash,Southern California Stormwater Monitoring Coalition,3,0,0,0,0,1,0,0,0,2,0,0,0,0,0,0,0,0,0,0,0,0,0,0,0,0,0,0,0,0,0,0,0,0,0,1,0,0,0,0,0,0,0,0,0,0,0,0,0,0,0,0,0,0,0,0,0,0,0,0,1,0,0,1,0,0,0,0,0,0,0,0,0,0,0,0,0,0,0,0,0,0,0,0,0,0
-117.762242,33.655516,167,SMC19399,6/13/13,33.655516,-117.762242,Urban,0.92112577,South_Coast,LowerSantaAna,ORANGE,San Diego Creek,Southern California Stormwater Monitoring Coalition,41,2,0,2,0,0,1,6,1,29,0,0,4,0,0,0,0,0,0,0,0,0,0,2,0,0,0,0,0,0,0,0,1,0,0,0,0,0,0,0,0,0,0,0,0,0,0,0,2,0,0,0,13,0,0,1,1,0,0,8,1,0,0,4,0,0,1,0,0,0,0,0,0,1,0,0,0,0,0,0,0,0,0,2,0,0
-118.757504,34.148837,168,SMC19466,6/17/13,34.148837,-118.757504,Urban,0.65364223,South_Coast,SantaMonica,LOS ANGELES,Medea Creek,Southern California Stormwater Monitoring Coalition,73,4,0,12,1,0,0,3,5,48,0,0,3,0,0,0,0,2,0,0,0,0,0,10,0,0,0,0,0,0,0,0,0,0,0,0,0,0,0,0,0,0,0,0,0,0,1,0,4,0,0,0,15,0,3,0,0,0,3,6,0,0,0,13,0,1,0,0,0,0,4,0,0,8,0,0,0,0,0,0,0,0,0,0,0,0
-117.826992,33.676256,169,SMC19486,6/13/13,33.676256,-117.826992,Urban,0.92112577,South_Coast,LowerSantaAna,ORANGE,San Diego Creek,Southern California Stormwater Monitoring Coalition,45,4,0,0,0,0,0,4,1,35,1,1,2,1,0,0,0,0,0,0,0,0,0,0,0,0,0,0,0,0,0,0,0,0,0,0,0,0,0,0,0,0,0,0,0,0,0,0,4,0,0,0,5,0,1,1,0,0,1,4,0,0,0,9,0,0,0,0,0,0,1,0,0,14,0,0,0,0,0,1,0,0,0,0,0,0
-117.161068,33.571597,170,SMC19669,6/12/13,33.571597,-117.161068,Urban,1.18972906,South_Coast,NorthernSanDiego,RIVERSIDE,Warm Springs Creek,Southern California Stormwater Monitoring Coalition,4,0,0,0,0,1,0,2,0,1,0,0,2,0,0,0,0,0,0,0,0,0,0,0,0,0,0,0,0,0,0,0,0,0,1,0,0,0,0,0,0,0,0,0,0,0,0,0,0,0,0,0,0,0,0,0,0,0,0,0,0,1,0,0,0,0,0,0,0,0,0,0,0,0,0,0,0,0,0,0,0,0,0,0,0,0
-118.656085,34.414104,171,SMC20092,6/13/13,34.414104,-118.656085,Ag,1.27456862,South_Coast,SantaClara,LOS ANGELES,Santa Clara River,Southern California Stormwater Monitoring Coalition,2,0,0,0,0,0,0,0,0,2,0,0,0,0,0,0,0,0,0,0,0,0,0,0,0,0,0,0,0,0,0,0,0,0,0,0,0,0,0,0,0,0,0,0,0,0,0,0,0,0,0,0,0,0,1,0,0,0,0,0,0,0,0,1,0,0,0,0,0,0,0,0,0,0,0,0,0,0,0,0,0,0,0,0,0,0
-118.511299,34.036391,172,SMC20994,6/12/13,34.036391,-118.511299,Urban,0.63193279,South_Coast,SantaMonica,LOS ANGELES,Santa Monica Channel,Southern California Stormwater Monitoring Coalition,3,1,0,0,0,0,0,0,0,2,0,0,0,0,0,0,0,0,0,0,0,0,0,0,0,0,0,0,0,0,0,0,0,0,0,0,0,0,0,0,0,0,0,0,0,0,0,0,1,0,0,0,0,0,0,0,0,0,0,0,0,0,0,2,0,0,0,0,0,0,0,0,0,0,0,0,0,0,0,0,0,0,0,0,0,0
-117.124037,33.596863,173,SMC21069,6/11/13,33.596863,-117.124037,Urban,1.46102589,South_Coast,NorthernSanDiego,RIVERSIDE,French Valley Creek,Southern California Stormwater Monitoring Coalition,1,0,0,0,0,0,1,0,0,0,0,0,0,0,0,0,0,0,0,0,0,0,0,0,0,0,0,0,0,0,0,0,0,0,0,0,0,0,0,0,0,0,0,0,0,0,0,0,0,0,0,0,0,0,0,0,0,0,0,0,0,0,0,0,0,0,0,0,0,0,0,0,0,0,0,0,0,0,1,0,0,0,0,0,0,0
-117.578614,33.894502,174,SMC21371,6/20/11,33.894502,-117.578614,Urban,0.57758972,South_Coast,MiddleSantaAna,RIVERSIDE,Temescal Wash,Southern California Stormwater Monitoring Coalition,207,2,0,4,11,1,9,3,25,148,4,0,1,0,1,0,0,0,0,0,0,0,1,1,0,0,0,0,0,0,0,0,1,0,1,0,0,0,0,0,0,0,1,4,0,0,2,0,2,0,0,0,51,0,0,18,0,0,0,51,0,1,0,4,1,0,1,7,0,0,19,3,0,21,0,9,0,2,1,0,0,0,0,1,2,0
-118.6694,34.406631,175,SMC21382,6/13/13,34.406631,-118.6694,Ag,1.27456862,South_Coast,SantaClara,LOS ANGELES,Santa Clara River,Southern California Stormwater Monitoring Coalition,0,0,0,0,0,0,0,0,0,0,0,0,0,0,0,0,0,0,0,0,0,0,0,0,0,0,0,0,0,0,0,0,0,0,0,0,0,0,0,0,0,0,0,0,0,0,0,0,0,0,0,0,0,0,0,0,0,0,0,0,0,0,0,0,0,0,0,0,0,0,0,0,0,0,0,0,0,0,0,0,0,0,0,0,0,0
-118.409162,33.991089,176,SMC21796,6/14/13,33.991089,-118.409162,Urban,0.50846839,South_Coast,SantaMonica,LOS ANGELES,Ballo Creek,Southern California Stormwater Monitoring Coalition,32,6,0,0,1,1,0,3,1,15,5,0,0,0,1,0,0,0,0,0,0,0,5,0,0,0,0,0,0,0,0,1,0,0,0,1,0,0,0,0,0,1,0,0,0,0,0,0,5,0,0,0,0,0,1,0,0,0,0,8,0,0,0,4,0,0,0,0,0,0,0,0,0,2,0,1,0,0,0,0,0,0,0,2,0,0
-117.505747,33.887803,177,SMC21921,6/13/13,33.887803,-117.505747,Urban,1.06113912,South_Coast,MiddleSantaAna,RIVERSIDE,Arlington Channel,Southern California Stormwater Monitoring Coalition,188,3,1,4,1,7,0,10,9,151,2,3,6,0,1,0,0,0,0,0,0,0,2,1,0,1,0,0,0,0,0,0,0,0,0,7,0,0,0,0,0,1,0,0,0,0,1,0,3,0,0,0,17,0,3,4,3,0,6,27,6,0,0,31,0,0,7,0,0,0,1,0,0,54,0,0,0,0,0,0,0,0,0,0,3,0
-117.540481,33.87789,178,SMC22521,6/13/13,33.87789,-117.540481,Urban,1.06113912,South_Coast,MiddleSantaAna,RIVERSIDE,Arlington Channel,Southern California Stormwater Monitoring Coalition,242,16,0,3,1,1,0,6,2,207,6,6,0,0,0,0,0,0,0,0,0,0,5,0,0,0,0,0,0,0,0,0,0,0,0,1,0,0,0,0,0,0,0,0,0,0,1,0,16,1,0,0,124,0,1,2,0,0,4,16,0,0,0,25,0,0,0,0,0,0,2,0,0,35,0,0,0,0,0,0,0,0,0,0,3,0
-118.581031,34.050062,179,SMC23297,6/19/13,34.050062,-118.581031,Open,0.74870346,South_Coast,SantaMonica,LOS ANGELES,Topanga Canyon,Southern California Stormwater Monitoring Coalition,32,0,0,11,0,1,0,0,0,5,15,0,0,0,0,0,0,0,0,0,0,0,15,7,0,0,0,0,0,0,0,0,0,0,1,0,0,0,0,0,0,0,0,0,0,0,0,0,0,0,0,0,1,0,4,0,0,0,0,0,0,0,0,0,4,0,0,0,0,0,0,0,0,0,0,0,0,0,0,0,0,0,0,0,0,0
-116.723021,32.833825,180,SMC23495,7/16/13,32.833825,-116.723021,Urban,0.77457486,South_Coast,SouthernSanDiego,SAN DIEGO,Viejas Creek,Southern California Stormwater Monitoring Coalition,15,0,0,1,0,0,2,5,0,7,0,0,3,0,0,0,0,0,0,0,0,0,0,0,0,0,0,0,0,0,0,0,0,0,0,0,0,0,1,0,0,0,2,0,0,0,0,0,0,0,0,0,3,0,1,0,0,0,0,0,0,0,0,3,1,0,0,0,0,0,0,0,0,0,0,0,0,0,1,0,0,0,0,0,0,0
-118.700774,34.163219,181,SMC24066,6/4/13,34.163219,-118.700774,Open,0.54679717,South_Coast,SantaMonica,LOS ANGELES,Las Virgenes,Southern California Stormwater Monitoring Coalition,130,14,0,4,0,30,0,3,18,32,29,0,0,0,3,0,0,3,1,0,0,1,27,0,0,0,0,0,0,0,0,0,0,1,5,25,0,0,0,1,3,0,0,0,0,0,0,0,14,0,0,0,17,0,6,5,0,0,0,2,0,0,0,2,1,0,0,0,0,0,13,0,0,0,0,0,0,0,0,0,0,0,0,0,0,0
-117.553612,33.878287,182,SMC24921,6/28/12,33.878287,-117.553612,Urban,0.96820674,South_Coast,MiddleSantaAna,RIVERSIDE,Temescal Wash,Southern California Stormwater Monitoring Coalition,82,6,4,5,0,18,0,10,3,32,4,0,0,0,0,0,3,3,0,0,2,0,3,2,0,1,1,0,0,0,0,1,0,0,0,18,0,0,0,0,0,5,0,1,0,3,0,0,5,0,0,0,0,0,0,1,0,0,1,8,0,2,0,18,0,0,0,0,0,0,0,0,0,2,0,0,0,0,0,0,0,0,0,2,0,0
-116.762141,33.719514,183,SMC25288,6/30/11,33.719514,-116.762141,Open,0.42433585,South_Coast,SanJacinto,RIVERSIDE,Strawberry Creek,Southern California Stormwater Monitoring Coalition,0,0,0,0,0,0,0,0,0,0,0,0,0,0,0,0,0,0,0,0,0,0,0,0,0,0,0,0,0,0,0,0,0,0,0,0,0,0,0,0,0,0,0,0,0,0,0,0,0,0,0,0,0,0,0,0,0,0,0,0,0,0,0,0,0,0,0,0,0,0,0,0,0,0,0,0,0,0,0,0,0,0,0,0,0,0
-118.687325,34.045532,184,SMC25298,6/20/12,34.045532,-118.687325,Open,0.79538678,South_Coast,SantaMonica,LOS ANGELES,Malibu Creek,Southern California Stormwater Monitoring Coalition,0,0,0,0,0,0,0,0,0,0,0,0,0,0,0,0,0,0,0,0,0,0,0,0,0,0,0,0,0,0,0,0,0,0,0,0,0,0,0,0,0,0,0,0,0,0,0,0,0,0,0,0,0,0,0,0,0,0,0,0,0,0,0,0,0,0,0,0,0,0,0,0,0,0,0,0,0,0,0,0,0,0,0,0,0,0
-116.748208,33.794418,185,SMC25949,6/4/12,33.794418,-116.748208,Open,0.42433585,South_Coast,SanJacinto,RIVERSIDE,San Jacinto,Southern California Stormwater Monitoring Coalition,19,2,0,3,0,1,2,1,2,8,0,0,1,0,0,0,0,0,0,0,0,0,0,1,0,0,0,0,0,0,0,1,2,0,0,1,0,0,0,0,0,0,0,2,0,0,0,0,1,0,0,0,2,0,0,1,0,0,0,0,0,0,0,5,0,0,0,0,0,0,0,0,0,0,0,0,0,0,0,0,0,0,0,0,2,0
-118.76205,34.163856,186,SMC26670,6/18/12,34.163856,-118.76205,Urban,0.65364223,South_Coast,SantaMonica,LOS ANGELES,Medea Creek,Southern California Stormwater Monitoring Coalition,60,0,0,0,0,0,0,4,2,35,19,0,4,0,0,0,0,0,0,0,0,1,17,0,0,0,0,0,0,0,0,0,0,0,0,0,0,0,0,0,0,0,0,0,0,0,0,0,0,0,0,0,8,0,12,2,0,0,0,10,0,0,0,0,0,0,0,0,0,0,2,1,0,0,0,0,0,3,0,0,0,0,0,0,0,0
-116.717062,32.837708,187,SMC26694,7/16/13,32.837708,-116.717062,Urban,0.75430935,South_Coast,SouthernSanDiego,SAN DIEGO,Viejas Creek,Southern California Stormwater Monitoring Coalition,9,0,0,0,1,0,2,1,1,4,0,0,1,0,0,0,0,0,0,0,0,0,0,0,0,0,0,0,0,0,0,0,0,0,0,0,1,0,0,0,0,0,0,0,0,0,0,0,0,0,0,0,2,0,0,0,0,0,0,0,0,0,0,2,0,0,0,0,0,0,0,0,0,0,0,1,0,0,2,0,0,0,0,0,0,0
-118.717372,34.096751,188,SMC26868,6/26/12,34.096751,-118.717372,Urban,0.60657416,South_Coast,SantaMonica,LOS ANGELES,Las Virgenes Creek,Southern California Stormwater Monitoring Coalition,4,0,0,0,0,0,0,0,0,0,4,0,0,0,0,0,0,0,0,0,0,0,4,0,0,0,0,0,0,0,0,0,0,0,0,0,0,0,0,0,0,0,0,0,0,0,0,0,0,0,0,0,0,0,0,0,0,0,0,0,0,0,0,0,0,0,0,0,0,0,0,0,0,0,0,0,0,0,0,0,0,0,0,0,0,0
-118.76389,34.174456,189,SMC27470,6/19/12,34.174456,-118.76389,Urban,0.52752872,South_Coast,SantaMonica,VENTURA,Medea Creek,Southern California Stormwater Monitoring Coalition,45,0,1,0,0,1,1,0,6,19,17,0,0,0,3,0,0,0,0,0,0,0,16,0,0,0,0,0,0,0,0,0,0,0,1,0,0,0,0,1,0,0,0,0,0,0,0,0,0,0,1,0,13,0,3,0,0,0,1,2,0,0,0,0,0,0,0,0,0,0,3,0,0,0,0,0,0,0,1,0,0,0,0,0,0,0
-118.703664,34.139362,190,SMC28068,6/20/12,34.139362,-118.703664,Urban,0.65955008,South_Coast,SantaMonica,LOS ANGELES,Las Virgenes Creek,Southern California Stormwater Monitoring Coalition,56,0,1,0,2,9,1,8,6,10,19,0,8,0,1,0,0,0,0,0,0,1,17,0,0,0,0,0,0,0,0,0,0,0,2,7,0,0,0,0,0,0,0,0,0,0,2,0,0,0,1,0,4,0,0,0,0,0,0,2,0,0,0,2,0,0,0,0,0,0,5,1,0,2,0,0,0,0,1,0,0,0,0,0,0,0
-118.757257,34.136633,191,SMC28270,6/18/12,34.136633,-118.757257,Urban,0.65955008,South_Coast,SantaMonica,LOS ANGELES,Medea Creek,Southern California Stormwater Monitoring Coalition,52,0,0,0,3,0,1,2,5,31,10,0,2,0,2,0,0,0,0,0,0,0,10,0,0,0,0,0,0,0,0,0,0,0,0,0,0,0,1,0,0,0,0,0,0,0,3,0,0,0,0,0,12,0,12,0,0,0,0,0,0,0,0,7,0,0,0,0,0,0,3,0,0,0,0,0,0,0,0,0,0,0,0,0,0,0
-116.742608,33.795643,192,SMC29064,6/25/12,33.795643,-116.742608,Open,0.42433585,South_Coast,SanJacinto,RIVERSIDE,San Jacinto,Southern California Stormwater Monitoring Coalition,7,0,0,0,0,1,0,1,1,4,0,0,1,0,0,0,0,0,0,0,0,0,0,0,0,0,0,0,0,0,0,0,0,0,0,1,0,0,0,0,0,0,0,0,0,0,0,0,0,0,0,0,1,0,1,0,0,0,0,1,0,0,0,1,0,0,0,0,0,0,1,0,0,0,0,0,0,0,0,0,0,0,0,0,0,0
-118.761597,34.168745,193,SMC31468,6/19/12,34.168745,-118.761597,Urban,0.52752872,South_Coast,SantaMonica,VENTURA,Medea Creek,Southern California Stormwater Monitoring Coalition,20,2,0,0,0,1,0,0,3,9,5,0,0,0,1,0,0,0,0,0,0,0,5,0,0,0,0,0,0,0,0,0,0,0,1,0,0,0,0,0,0,0,0,0,0,0,0,0,0,0,0,0,6,0,2,0,0,0,0,1,0,0,0,0,0,0,0,0,0,0,2,0,0,0,0,0,0,0,0,0,0,0,0,0,0,2
-118.723049,34.099898,194,SMC32468,6/26/12,34.099898,-118.723049,Open,0.79538678,South_Coast,SantaMonica,LOS ANGELES,Malibu Creek,Southern California Stormwater Monitoring Coalition,0,0,0,0,0,0,0,0,0,0,0,0,0,0,0,0,0,0,0,0,0,0,0,0,0,0,0,0,0,0,0,0,0,0,0,0,0,0,0,0,0,0,0,0,0,0,0,0,0,0,0,0,0,0,0,0,0,0,0,0,0,0,0,0,0,0,0,0,0,0,0,0,0,0,0,0,0,0,0,0,0,0,0,0,0,0
-117.143511,33.473133,195,SMC33179,6/11/13,33.473133,-117.143511,Open,1.42556761,South_Coast,NorthernSanDiego,RIVERSIDE,Santa Margarita River,Southern California Stormwater Monitoring Coalition,28,2,0,0,2,0,0,1,0,23,0,0,1,0,0,0,0,0,0,0,0,0,0,0,0,0,0,0,1,0,0,0,0,0,0,0,0,0,0,0,0,0,0,0,0,0,1,0,2,0,0,0,6,0,6,0,0,0,0,3,0,0,0,6,0,0,0,0,0,0,0,0,0,1,0,0,0,1,0,0,0,0,0,0,0,0
-116.725155,33.739068,196,SMC33361,6/5/12,33.739068,-116.725155,Open,0.42433585,South_Coast,SanJacinto,RIVERSIDE,Strawberry Creek,Southern California Stormwater Monitoring Coalition,0,0,0,0,0,0,0,0,0,0,0,0,0,0,0,0,0,0,0,0,0,0,0,0,0,0,0,0,0,0,0,0,0,0,0,0,0,0,0,0,0,0,0,0,0,0,0,0,0,0,0,0,0,0,0,0,0,0,0,0,0,0,0,0,0,0,0,0,0,0,0,0,0,0,0,0,0,0,0,0,0,0,0,0,0,0
-116.710304,33.743563,197,SMC33561,6/4/12,33.743563,-116.710304,Open,0.42433585,South_Coast,SanJacinto,RIVERSIDE,Strawberry Creek,Southern California Stormwater Monitoring Coalition,4,0,0,2,1,0,0,0,0,1,0,0,0,0,0,0,0,0,0,0,0,0,0,1,0,0,0,0,0,0,0,0,0,0,0,0,0,0,0,0,0,0,0,0,0,0,1,0,0,0,0,0,0,0,0,0,0,0,0,1,0,0,0,0,0,0,0,0,0,0,0,0,0,0,0,0,0,0,0,0,0,0,0,0,1,0
-118.700126,34.158248,198,SMC33670,6/19/12,34.158248,-118.700126,Urban,0.65955008,South_Coast,SantaMonica,LOS ANGELES,Las Virgenes Creek,Southern California Stormwater Monitoring Coalition,17,0,0,0,0,7,0,0,0,3,7,0,0,0,0,0,0,0,0,0,0,0,7,0,0,0,0,0,0,0,0,0,0,0,0,7,0,0,0,0,0,0,0,0,0,0,0,0,0,0,0,0,0,0,2,0,0,0,0,1,0,0,0,0,0,0,0,0,0,0,0,0,0,0,0,0,0,0,0,0,0,0,0,0,0,0
-118.789188,34.165588,199,SMC34120,6/21/12,34.165588,-118.789188,Urban,0.65364223,South_Coast,SantaMonica,LOS ANGELES,Lindero Canyon,Southern California Stormwater Monitoring Coalition,0,0,0,0,0,0,0,0,0,0,0,0,0,0,0,0,0,0,0,0,0,0,0,0,0,0,0,0,0,0,0,0,0,0,0,0,0,0,0,0,0,0,0,0,0,0,0,0,0,0,0,0,0,0,0,0,0,0,0,0,0,0,0,0,0,0,0,0,0,0,0,0,0,0,0,0,0,0,0,0,0,0,0,0,0,0
-118.586781,34.069093,200,SMC34230,6/19/13,34.069093,-118.586781,Open,0.74870346,South_Coast,SantaMonica,LOS ANGELES,Topanga Canyon,Southern California Stormwater Monitoring Coalition,28,3,0,3,0,2,0,3,3,9,5,0,0,0,2,0,0,1,0,0,0,1,4,2,0,0,0,0,0,0,0,2,0,0,2,0,0,0,0,0,0,2,0,0,0,0,0,0,1,0,0,0,3,0,1,0,1,0,0,0,0,0,0,0,0,0,0,0,0,0,1,0,0,0,0,0,0,4,0,0,0,0,0,1,0,0
-118.566167,34.425565,201,SMC34646,6/25/13,34.425565,-118.566167,Ag,1.27456862,South_Coast,SantaClara,LOS ANGELES,Santa Clara River,Southern California Stormwater Monitoring Coalition,151,2,4,2,6,25,0,1,21,85,5,0,0,0,5,0,0,0,0,0,0,1,0,0,0,0,0,0,0,0,0,0,0,2,5,20,0,3,0,0,0,1,0,0,0,0,3,0,1,0,1,0,28,0,39,0,9,0,0,3,0,0,0,0,1,0,2,0,0,0,6,4,0,0,0,3,0,6,0,0,0,0,6,0,1,1
-118.706562,34.133251,202,SMC35270,6/20/12,34.133251,-118.706562,Urban,0.60657416,South_Coast,SantaMonica,LOS ANGELES,Las Virgenes Creek,Southern California Stormwater Monitoring Coalition,35,0,0,0,0,0,1,1,5,12,16,0,1,0,1,0,0,0,0,0,0,0,15,0,0,0,0,0,0,0,0,0,0,0,0,0,0,0,0,0,0,0,0,0,0,0,0,0,0,0,0,0,3,0,4,1,0,0,0,1,0,1,0,2,0,0,0,0,0,0,4,1,0,0,0,0,0,0,1,0,0,0,0,0,0,0
-118.708577,34.082618,203,SMC35418,6/25/12,34.082618,-118.708577,Open,0.31194144,South_Coast,SantaMonica,LOS ANGELES,Malibu Creek,Southern California Stormwater Monitoring Coalition,14,0,0,0,0,2,0,0,2,4,6,0,0,0,0,0,0,0,0,0,0,0,6,0,0,0,0,0,0,0,0,0,0,0,0,2,0,0,0,0,0,0,0,0,0,0,0,0,0,0,0,0,2,0,0,0,0,0,0,0,1,0,0,1,0,0,0,0,0,0,2,0,0,0,0,0,0,0,0,0,0,0,0,0,0,0
-116.826103,33.736401,204,SMC35837,6/25/12,33.736401,-116.826103,Open,0.55853437,South_Coast,SanJacinto,RIVERSIDE,San Jacinto,Southern California Stormwater Monitoring Coalition,151,10,0,0,22,58,0,7,1,40,13,0,3,0,0,1,0,0,0,0,1,0,6,0,0,0,0,0,4,0,0,0,0,0,3,55,0,0,0,1,1,3,0,0,0,0,17,0,9,0,0,0,7,0,3,11,0,0,4,1,0,2,0,12,0,0,0,0,0,0,0,5,0,0,0,1,0,0,0,1,0,0,0,0,0,0
-118.701178,34.14074,205,SMC37670,6/6/13,34.14074,-118.701178,Urban,0.60657416,South_Coast,SantaMonica,LOS ANGELES,Las Virgenes Creek,Southern California Stormwater Monitoring Coalition,84,2,0,0,0,7,2,5,16,30,22,0,5,0,0,0,0,0,0,0,0,5,15,0,0,0,0,0,0,0,0,0,0,0,2,5,0,0,1,0,0,0,0,0,0,0,0,0,2,0,0,0,8,0,5,0,0,0,0,0,0,0,0,16,0,0,2,1,0,0,12,2,0,0,0,0,0,1,0,0,0,0,2,0,0,0
-117.214031,33.879624,206,SMC37697,7/12/12,33.879624,-117.214031,Urban,0.66869788,South_Coast,SanJacinto,RIVERSIDE,San Jacinto,Southern California Stormwater Monitoring Coalition,139,18,0,0,3,11,0,15,2,81,9,10,1,0,0,0,0,0,0,0,1,0,8,0,0,0,0,0,0,0,0,0,0,0,11,0,0,0,0,0,0,2,0,0,0,0,2,0,18,1,0,0,7,0,0,8,0,0,2,27,2,4,0,20,0,0,1,0,0,0,0,0,0,11,0,1,0,0,0,0,0,0,0,2,0,0
-118.617144,34.432302,207,SMC39062,6/25/13,34.432302,-118.617144,Ag,1.27456862,South_Coast,SantaClara,LOS ANGELES,Santa Clara River,Southern California Stormwater Monitoring Coalition,0,0,0,0,0,0,0,0,0,0,0,0,0,0,0,0,0,0,0,0,0,0,0,0,0,0,0,0,0,0,0,0,0,0,0,0,0,0,0,0,0,0,0,0,0,0,0,0,0,0,0,0,0,0,0,0,0,0,0,0,0,0,0,0,0,0,0,0,0,0,0,0,0,0,0,0,0,0,0,0,0,0,0,0,0,0
-117.46378,33.763174,208,SMC40887,6/12/13,33.763174,-117.46378,Open,0.98049731,South_Coast,MiddleSantaAna,RIVERSIDE,Temescal Wash,Southern California Stormwater Monitoring Coalition,11,0,0,3,0,1,0,1,0,6,0,1,0,0,0,0,0,0,0,0,0,0,0,1,0,0,0,0,0,0,0,0,0,0,1,0,0,0,0,0,0,0,0,0,0,0,0,0,0,0,0,0,0,0,2,1,0,0,1,1,1,0,0,0,0,0,0,0,0,0,0,0,0,0,0,0,0,0,0,0,0,0,0,0,2,0
-118.757795,34.143019,209,SMC44210,6/20/13,34.143019,-118.757795,Urban,0.65955008,South_Coast,SantaMonica,LOS ANGELES,Medea Creek,Southern California Stormwater Monitoring Coalition,3,0,0,0,0,0,0,1,1,0,1,0,0,0,0,0,0,0,0,0,0,0,0,0,0,0,0,0,0,0,0,0,0,0,0,0,0,0,0,0,0,1,0,0,0,0,0,0,0,0,0,0,0,0,0,0,0,0,0,0,0,0,0,0,0,0,0,0,0,0,1,1,0,0,0,0,0,0,0,0,0,0,0,0,0,0
-118.796174,34.126825,210,SMC44532,6/4/13,34.126825,-118.796174,Open,0.66307207,South_Coast,SantaMonica,LOS ANGELES,Potero Valley Creek,Southern California Stormwater Monitoring Coalition,17,0,0,1,0,3,0,3,2,8,0,0,0,0,0,0,0,0,0,0,0,0,0,0,0,0,0,0,0,0,0,0,0,0,3,0,0,0,0,0,3,0,0,0,0,0,0,0,0,0,0,0,5,0,1,2,0,0,0,0,0,0,0,0,0,0,0,0,0,0,2,0,0,0,0,0,0,0,0,0,0,0,0,0,1,0
-118.70306,34.16873,211,SMC44642,6/4/13,34.16873,-118.70306,Open,0.66307207,South_Coast,SantaMonica,VENTURA,Las Virgenes,Southern California Stormwater Monitoring Coalition,112,3,1,1,0,40,0,0,13,36,18,0,0,0,0,0,0,1,0,0,0,0,17,0,0,0,0,0,0,0,0,0,0,0,5,35,0,0,0,0,0,0,0,0,0,0,0,0,3,0,1,0,13,0,12,0,0,0,0,5,0,0,0,3,0,0,2,0,0,0,7,1,0,3,0,0,0,0,0,0,0,0,4,0,0,0
-116.778785,33.769972,212,SMC45233,6/12/13,33.769972,-116.778785,Open,0.50109878,South_Coast,SanJacinto,RIVERSIDE,San Jacinto North Fork,Southern California Stormwater Monitoring Coalition,1,0,0,0,0,0,0,1,0,0,0,0,1,0,0,0,0,0,0,0,0,0,0,0,0,0,0,0,0,0,0,0,0,0,0,0,0,0,0,0,0,0,0,0,0,0,0,0,0,0,0,0,0,0,0,0,0,0,0,0,0,0,0,0,0,0,0,0,0,0,0,0,0,0,0,0,0,0,0,0,0,0,0,0,0,0
-118.585344,34.061494,213,SMC45622,6/3/13,34.061494,-118.585344,Open,0.74870346,South_Coast,SantaMonica,LOS ANGELES,Topango Canyon,Southern California Stormwater Monitoring Coalition,13,1,0,3,0,0,0,1,0,8,0,0,0,0,0,0,0,0,0,0,0,0,0,1,0,0,0,0,0,0,0,0,0,0,0,0,0,0,0,0,0,1,0,0,0,0,0,0,0,0,0,0,2,0,3,0,0,0,0,1,0,0,0,2,0,0,0,0,0,0,0,0,0,0,0,0,0,0,0,0,0,0,0,0,2,1
-118.933902,34.059024,214,SMC45745,6/18/13,34.059024,-118.933902,Open,0.74870346,South_Coast,SantaMonica,LOS ANGELES,Arroyo Sequit,Southern California Stormwater Monitoring Coalition,0,0,0,0,0,0,0,0,0,0,0,0,0,0,0,0,0,0,0,0,0,0,0,0,0,0,0,0,0,0,0,0,0,0,0,0,0,0,0,0,0,0,0,0,0,0,0,0,0,0,0,0,0,0,0,0,0,0,0,0,0,0,0,0,0,0,0,0,0,0,0,0,0,0,0,0,0,0,0,0,0,0,0,0,0,0
-117.138512,32.937095,215,SMC00198,9/21/13,32.937095,-117.138512,Urban,7.63514504,South_Coast,CentralSanDiego,SAN DIEGO,,Coastkeepers,24,2,0,0,1,0,0,0,0,20,1,0,0,0,0,0,0,0,0,0,0,0,1,0,0,0,0,0,0,0,0,0,0,0,0,0,0,0,0,0,0,0,0,0,0,0,1,0,2,0,0,0,2,0,1,0,1,0,0,2,0,0,0,3,0,0,0,0,0,0,0,0,0,11,0,0,0,0,0,0,0,0,0,0,0,0
-117.659637,33.543591,216,SMC00206,9/27/13,33.543591,-117.659637,Urban,5.07392491,South_Coast,SanJuan,ORANGE,,Coastkeepers,1,0,0,0,0,0,0,0,0,1,0,0,0,0,0,0,0,0,0,0,0,0,0,0,0,0,0,0,0,0,0,0,0,0,0,0,0,0,0,0,0,0,0,0,0,0,0,0,0,0,0,0,0,0,1,0,0,0,0,0,0,0,0,0,0,0,0,0,0,0,0,0,0,0,0,0,0,0,0,0,0,0,0,0,0,0
-117.760003,34.131189,217,SMC00288,9/27/13,34.131189,-117.760003,Urban,12.42948798,South_Coast,SanGabriel,LOS ANGELES,,Coastkeepers,47,0,0,7,3,1,0,1,1,33,1,0,0,0,0,0,0,2,0,0,0,0,1,0,5,0,0,0,2,0,0,0,0,0,0,1,0,0,0,0,1,0,0,1,1,0,1,0,0,0,0,0,12,0,4,0,0,0,0,2,0,1,0,7,0,0,0,0,0,0,0,0,0,5,1,0,0,0,0,0,0,0,0,0,0,0
-118.205589,33.812879,218,SMC00318,8/17/13,33.812879,-118.205589,Urban,3.59502488,South_Coast,LosAngeles,LOS ANGELES,,Coastkeepers,142,38,0,16,3,10,0,8,19,45,3,0,1,3,0,0,0,2,0,0,11,0,1,7,5,0,1,0,0,0,0,7,0,0,2,8,0,0,0,0,3,1,0,5,7,0,1,0,30,0,0,0,7,0,0,1,0,0,3,3,3,0,2,15,0,3,0,0,1,0,0,0,0,4,0,2,0,0,0,0,0,0,0,0,2,1
-117.224843,33.210482,219,SMC00345,7/19/11,33.210482,-117.224843,Urban,8.26323917,South_Coast,CentralSanDiego,SAN DIEGO,Brengle Terrace,Southern California Stormwater Monitoring Coalition,31,0,0,1,3,3,0,2,5,17,0,0,2,0,0,0,0,0,0,0,0,0,0,0,0,0,0,0,0,0,0,0,0,0,3,0,0,0,0,0,0,0,0,1,0,0,3,0,0,0,0,0,6,0,6,0,0,0,0,3,1,0,0,1,0,0,0,0,0,0,4,0,0,0,0,0,0,0,0,0,0,0,0,0,1,0
-118.046276,34.020185,220,SMC00446,9/27/13,34.020185,-118.046276,Urban,12.42948798,South_Coast,SanGabriel,LOS ANGELES,,Coastkeepers,161,0,0,50,0,0,0,1,5,105,0,0,0,0,0,0,0,0,0,0,0,0,0,49,0,0,0,0,0,0,0,0,0,0,0,0,0,0,0,0,0,0,0,0,0,1,0,0,0,0,0,1,5,0,7,0,0,0,3,50,1,0,0,6,1,3,2,0,0,0,0,0,0,24,8,0,0,0,0,0,0,0,0,0,0,0
-118.282527,34.296261,221,SMC00520,8/5/11,34.296261,-118.282527,Open,2.37724297,South_Coast,LosAngeles,LOS ANGELES,Big Tujunga Creek,Southern California Stormwater Monitoring Coalition,195,13,1,0,7,15,0,7,29,123,0,0,7,0,0,0,0,0,0,0,0,0,0,0,0,0,0,0,0,0,0,2,0,0,10,5,0,1,0,0,0,0,0,1,0,0,4,0,11,0,0,0,54,0,0,0,3,0,3,6,1,0,0,14,0,0,0,0,0,0,0,0,0,42,0,3,0,0,0,0,0,0,28,0,0,0
-117.74153,34.146774,222,SMC00544,6/22/11,34.146774,-117.74153,Urban,12.42948798,South_Coast,SanGabriel,LOS ANGELES,Live Oak Canyon,Southern California Stormwater Monitoring Coalition,0,0,0,0,0,0,0,0,0,0,0,0,0,0,0,0,0,0,0,0,0,0,0,0,0,0,0,0,0,0,0,0,0,0,0,0,0,0,0,0,0,0,0,0,0,0,0,0,0,0,0,0,0,0,0,0,0,0,0,0,0,0,0,0,0,0,0,0,0,0,0,0,0,0,0,0,0,0,0,0,0,0,0,0,0,0
-117.902235,34.123443,223,SMC00608,6/27/11,34.123443,-117.902235,Urban,8.49326098,South_Coast,SanGabriel,LOS ANGELES,Little Dalton Wash,Southern California Stormwater Monitoring Coalition,3,0,0,0,0,0,0,0,0,3,0,0,0,0,0,0,0,0,0,0,0,0,0,0,0,0,0,0,0,0,0,0,0,0,0,0,0,0,0,0,0,0,0,0,0,0,0,0,0,0,0,0,1,0,0,0,0,0,0,2,0,0,0,0,0,0,0,0,0,0,0,0,0,0,0,0,0,0,0,0,0,0,0,0,0,0
-118.556047,34.148748,224,SMC00632,6/13/11,34.148748,-118.556047,Urban,20.87043366,South_Coast,LosAngeles,LOS ANGELES,Tarza,Southern California Stormwater Monitoring Coalition,38,2,0,0,0,0,0,3,11,22,0,0,3,0,0,0,0,0,0,0,0,0,0,0,0,0,0,0,0,0,0,0,0,0,0,0,0,0,0,0,0,0,0,10,0,0,0,0,2,0,0,0,0,0,4,0,0,0,0,6,0,1,0,11,0,0,0,0,0,0,1,0,0,0,0,0,0,0,0,0,0,0,0,0,0,0
-117.231591,33.274005,225,SMC00665,7/27/11,33.274005,-117.231591,Urban,1.01582866,South_Coast,NorthernSanDiego,SAN DIEGO,San Luis Rey River,Southern California Stormwater Monitoring Coalition,1,0,0,0,0,0,0,0,1,0,0,0,0,0,0,0,0,0,0,0,0,0,0,0,0,0,0,0,0,0,0,0,0,0,0,0,0,0,0,0,0,0,0,0,0,0,0,0,0,0,0,0,0,0,0,0,0,0,0,0,0,0,0,0,0,0,0,0,0,0,1,0,0,0,0,0,0,0,0,0,0,0,0,0,0,0
-118.023739,34.096982,226,SMC00684,6/27/11,34.096982,-118.023739,Urban,0.7576027,South_Coast,LosAngeles,LOS ANGELES,Rio Hondo,Southern California Stormwater Monitoring Coalition,0,0,0,0,0,0,0,0,0,0,0,0,0,0,0,0,0,0,0,0,0,0,0,0,0,0,0,0,0,0,0,0,0,0,0,0,0,0,0,0,0,0,0,0,0,0,0,0,0,0,0,0,0,0,0,0,0,0,0,0,0,0,0,0,0,0,0,0,0,0,0,0,0,0,0,0,0,0,0,0,0,0,0,0,0,0
-117.838198,34.032203,227,SMC00686,6/27/11,34.032203,-117.838198,Urban,8.49326098,South_Coast,SanGabriel,LOS ANGELES,,Southern California Stormwater Monitoring Coalition,7,1,0,0,0,0,0,0,0,6,0,0,0,0,0,0,0,0,0,0,0,0,0,0,0,0,0,0,0,0,0,0,0,0,0,0,0,0,0,0,0,0,0,0,0,0,0,0,1,0,0,0,0,0,0,0,0,0,0,2,0,0,0,4,0,0,0,0,0,0,0,0,0,0,0,0,0,0,0,0,0,0,0,0,0,0
-118.002975,33.877956,228,SMC00702,7/19/11,33.877956,-118.002975,Urban,7.19981454,South_Coast,SanGabriel,ORANGE,Brea Creek,Southern California Stormwater Monitoring Coalition,18,2,0,4,0,3,0,0,0,8,1,0,0,0,0,0,0,0,0,0,0,0,0,4,0,0,0,0,0,0,0,0,0,0,2,1,0,0,0,1,0,0,0,0,0,0,0,0,1,0,0,0,0,0,0,0,0,0,0,6,0,1,0,1,0,0,0,0,0,0,0,0,0,0,0,0,0,0,0,0,0,0,0,0,0,1
-118.078808,34.075488,229,SMC00748,6/21/11,34.075488,-118.078808,Urban,6.75388271,South_Coast,LosAngeles,LOS ANGELES,Rubio Wash,Southern California Stormwater Monitoring Coalition,8,0,0,0,0,0,0,0,1,7,0,0,0,0,0,0,0,0,0,0,0,0,0,0,0,0,0,0,0,0,0,0,0,0,0,0,0,0,0,0,0,0,0,1,0,0,0,0,0,0,0,0,0,0,0,1,0,0,0,4,0,0,0,2,0,0,0,0,0,0,0,0,0,0,0,0,0,0,0,0,0,0,0,0,0,0
-117.837392,33.657186,230,SMC00766,7/11/11,33.657186,-117.837392,Urban,1.10624198,South_Coast,LowerSantaAna,ORANGE,Sand Cyn Channel,Southern California Stormwater Monitoring Coalition,20,7,0,0,0,0,0,0,0,13,0,0,0,0,0,0,0,0,0,0,0,0,0,0,0,0,0,0,0,0,0,0,0,0,0,0,0,0,0,0,0,0,0,0,0,0,0,0,7,0,0,0,2,0,0,0,3,0,0,6,0,0,0,2,0,0,0,0,0,0,0,0,0,0,0,0,0,0,0,0,0,0,0,0,0,0
-117.446638,34.279201,231,SMC00791,6/22/11,34.279201,-117.446638,Open,2.2605926,South_Coast,UpperSantaAna,SAN BERNARDINO,Cleghorn Creek,Southern California Stormwater Monitoring Coalition,2,0,0,0,0,0,0,1,0,1,0,0,0,0,0,0,0,0,0,0,0,0,0,0,0,0,0,0,0,0,0,0,0,0,0,0,0,0,0,0,0,0,0,0,0,0,0,0,0,0,0,0,0,0,0,0,0,0,0,0,0,0,0,1,0,0,0,0,0,0,0,0,0,0,0,0,0,0,0,0,0,0,0,1,0,0
-118.166062,33.943059,232,SMC00830,6/21/11,33.943059,-118.166062,Urban,4.66302893,South_Coast,LosAngeles,LOS ANGELES,Rio Hondo,Southern California Stormwater Monitoring Coalition,32,2,0,0,0,1,0,0,0,29,0,0,0,0,0,0,0,0,0,0,0,0,0,0,0,0,0,0,0,0,0,0,0,0,0,1,0,0,0,0,0,0,0,0,0,0,0,0,2,0,0,0,5,0,1,0,0,0,0,7,0,0,0,14,0,0,0,0,0,0,0,0,0,2,0,0,0,0,0,0,0,0,0,0,0,0
-117.300885,33.246098,233,SMC00857,7/26/11,33.246098,-117.300885,Urban,1.18972906,South_Coast,NorthernSanDiego,SAN DIEGO,San Luis Rey River,Southern California Stormwater Monitoring Coalition,9,0,0,0,0,0,0,0,1,7,1,0,0,0,0,0,0,0,0,0,0,0,1,0,0,0,0,0,0,0,0,0,0,0,0,0,0,0,0,0,0,0,0,0,0,0,0,0,0,0,0,0,1,0,1,0,0,0,0,2,1,0,0,1,0,0,1,0,0,0,0,0,0,1,0,0,0,0,0,0,0,0,0,0,0,0
-117.626682,33.598493,234,SMC00873,9/27/13,33.598493,-117.626682,Urban,2.54509217,South_Coast,SanJuan,ORANGE,,Coastkeepers,97,0,0,3,4,0,0,2,5,82,1,1,0,0,0,0,0,0,0,0,0,0,1,1,2,0,0,0,0,0,0,0,0,0,0,0,0,0,0,0,0,0,0,1,2,0,0,0,0,0,0,0,20,0,0,0,1,0,4,4,0,1,1,48,0,3,0,0,0,0,1,0,0,1,0,4,0,0,0,0,0,0,0,1,0,0
-117.788803,33.717471,235,SMC00899,7/12/11,33.717471,-117.788803,Urban,0.65686497,South_Coast,LowerSantaAna,ORANGE,Peter's Cyn Wash,Southern California Stormwater Monitoring Coalition,2,1,0,0,0,0,0,0,0,1,0,0,0,0,0,0,0,0,0,0,0,0,0,0,0,0,0,0,0,0,0,0,0,0,0,0,0,0,0,0,0,0,0,0,0,0,0,0,0,0,0,0,0,0,0,0,0,0,1,0,0,0,0,0,0,0,0,0,0,0,0,0,0,0,0,0,0,0,0,0,0,0,0,0,0,1
-116.847298,34.178323,236,SMC00903,7/6/11,34.178323,-116.847298,Open,1.58271825,South_Coast,UpperSantaAna,SAN BERNARDINO,Santa A River,Southern California Stormwater Monitoring Coalition,13,4,0,0,0,3,0,0,0,6,0,0,0,0,0,0,0,0,0,0,0,0,0,0,0,0,0,0,0,0,0,0,0,0,3,0,0,0,0,0,0,0,0,0,0,0,0,0,4,0,0,0,1,0,1,2,0,0,0,1,0,0,0,1,0,0,0,0,0,0,0,0,0,0,0,0,0,0,0,0,0,0,0,0,0,0
-117.882968,33.907395,237,SMC00926,9/30/13,33.907395,-117.882968,Urban,7.19981454,South_Coast,SanGabriel,ORANGE,,Coastkeepers,155,20,0,0,0,0,0,0,1,116,18,0,0,0,0,0,0,0,0,0,0,0,18,0,0,0,0,0,0,0,0,0,0,0,0,0,0,0,0,0,0,0,0,0,1,0,0,0,20,0,0,0,4,0,0,1,3,0,3,8,0,0,1,18,0,1,0,0,0,0,0,0,0,77,0,0,0,0,0,0,0,0,0,0,0,0
-117.998944,33.825326,239,SMC00958,7/19/11,33.825326,-117.998944,Urban,5.3447683,South_Coast,SanGabriel,ORANGE,Moody Creek,Southern California Stormwater Monitoring Coalition,103,8,1,2,3,7,0,9,1,59,13,1,4,0,0,0,1,1,0,0,0,0,13,0,1,0,0,0,0,0,0,0,0,0,3,4,0,0,0,0,0,0,2,0,0,0,1,0,8,0,0,0,25,0,0,1,7,0,1,5,0,0,0,20,0,0,0,0,0,0,1,0,0,0,0,2,0,0,0,0,0,0,0,2,0,0
-117.651403,33.564016,240,SMC00963,9/27/13,33.564016,-117.651403,Urban,5.07392491,South_Coast,SanJuan,ORANGE,,Coastkeepers,22,0,0,0,1,0,0,1,1,19,0,1,0,0,0,0,0,0,0,0,0,0,0,0,0,0,0,0,0,0,0,0,0,0,0,0,0,0,0,0,0,0,0,1,0,0,0,0,0,0,0,0,2,0,1,2,0,0,0,2,2,0,0,9,0,0,0,0,0,0,0,0,0,0,0,1,0,1,0,0,0,0,0,0,0,0
-117.184945,32.795095,241,SMC01046,9/15/13,32.795095,-117.184945,Urban,1.82264824,South_Coast,MissionBaySanDiego,SAN DIEGO,,Coastkeepers,516,2,0,0,3,0,0,4,390,117,0,0,2,0,0,0,0,0,0,0,0,0,0,0,0,0,0,0,0,0,0,0,0,0,0,0,0,0,0,0,1,0,0,0,46,0,1,0,2,0,0,0,8,0,1,0,4,0,5,3,1,0,1,40,0,2,0,0,0,0,388,0,1,7,0,2,0,0,0,0,0,0,0,1,0,0
-118.74403,34.627623,242,SMC01136,6/13/11,34.627623,-118.74403,Open,2.37027444,South_Coast,SantaClara,LOS ANGELES,Piru Creek,Southern California Stormwater Monitoring Coalition,0,0,0,0,0,0,0,0,0,0,0,0,0,0,0,0,0,0,0,0,0,0,0,0,0,0,0,0,0,0,0,0,0,0,0,0,0,0,0,0,0,0,0,0,0,0,0,0,0,0,0,0,0,0,0,0,0,0,0,0,0,0,0,0,0,0,0,0,0,0,0,0,0,0,0,0,0,0,0,0,0,0,0,0,0,0
-116.652682,32.735477,243,SMC01142,6/2/11,32.735477,-116.652682,Open,1.4546987,South_Coast,SouthernSanDiego,SAN DIEGO,Pine Valley Creek,Southern California Stormwater Monitoring Coalition,0,0,0,0,0,0,0,0,0,0,0,0,0,0,0,0,0,0,0,0,0,0,0,0,0,0,0,0,0,0,0,0,0,0,0,0,0,0,0,0,0,0,0,0,0,0,0,0,0,0,0,0,0,0,0,0,0,0,0,0,0,0,0,0,0,0,0,0,0,0,0,0,0,0,0,0,0,0,0,0,0,0,0,0,0,0
-117.016461,33.016775,244,SMC01174,7/20/11,33.016775,-117.016461,Urban,4.54436259,South_Coast,CentralSanDiego,SAN DIEGO,Green Valley Creek,Southern California Stormwater Monitoring Coalition,0,0,0,0,0,0,0,0,0,0,0,0,0,0,0,0,0,0,0,0,0,0,0,0,0,0,0,0,0,0,0,0,0,0,0,0,0,0,0,0,0,0,0,0,0,0,0,0,0,0,0,0,0,0,0,0,0,0,0,0,0,0,0,0,0,0,0,0,0,0,0,0,0,0,0,0,0,0,0,0,0,0,0,0,0,0
-117.744993,34.258957,245,SMC01248,7/26/11,34.258957,-117.744993,Open,5.55111326,South_Coast,SanGabriel,LOS ANGELES,Upper San Gabriel,Southern California Stormwater Monitoring Coalition,2,0,0,0,0,1,0,0,1,0,0,0,0,0,0,0,0,0,0,0,0,0,0,0,0,0,0,0,0,0,0,0,0,0,1,0,0,0,0,0,0,0,0,0,0,0,0,0,0,0,0,0,0,0,0,0,0,0,0,0,0,0,0,0,0,0,1,0,0,0,0,0,0,0,0,0,0,0,0,0,0,0,0,0,0,0
-117.618596,33.608422,246,SMC01257,6/16/11,33.608422,-117.618596,Urban,2.54509217,South_Coast,SanJuan,ORANGE,Tijeras Creek,Southern California Stormwater Monitoring Coalition,14,1,0,2,0,0,0,1,0,10,0,0,0,0,0,0,0,0,0,0,0,0,0,1,0,0,0,0,0,0,0,0,0,0,0,0,0,0,0,0,0,0,1,0,0,0,0,0,1,0,0,0,1,0,1,0,0,0,1,1,0,0,0,6,0,0,0,0,0,0,0,0,0,0,0,0,0,0,0,0,0,0,0,0,1,0
-117.058868,32.649495,247,SMC01258,9/29/13,32.649495,-117.058868,Urban,0.68334134,South_Coast,SouthernSanDiego,SAN DIEGO,,Coastkeepers,158,2,0,43,58,3,0,2,4,46,0,0,2,0,0,0,0,0,0,0,0,0,0,27,0,0,0,0,0,0,0,0,0,0,3,0,0,0,0,0,0,0,0,0,0,0,0,0,2,0,0,0,2,0,8,0,3,0,0,17,0,0,0,2,0,0,1,0,0,0,3,0,0,13,1,58,0,0,0,0,0,0,0,0,16,0
-117.974734,34.065024,248,SMC01260,7/16/12,34.065024,-117.974734,Urban,0.81618455,South_Coast,SanGabriel,LOS ANGELES,Walnut Creek,Southern California Stormwater Monitoring Coalition,53,8,0,0,0,6,0,4,0,35,0,0,0,0,0,0,0,0,0,0,0,0,0,0,0,0,0,0,0,0,0,0,0,0,0,6,0,0,0,0,0,1,0,0,0,3,0,0,8,0,0,0,4,0,0,0,0,0,0,6,0,0,0,16,0,0,0,0,0,0,0,0,0,9,0,0,0,0,0,0,0,0,0,0,0,0
-118.246733,33.909652,249,SMC01358,6/21/11,33.909652,-118.246733,Urban,6.75388271,South_Coast,LosAngeles,LOS ANGELES,Compton Creek,Southern California Stormwater Monitoring Coalition,39,4,0,0,0,13,0,2,1,18,1,0,0,0,0,0,0,0,0,0,0,0,1,0,0,0,0,0,0,0,0,0,0,0,0,13,0,0,0,0,0,0,1,0,0,1,0,0,4,0,0,0,1,0,0,4,0,0,2,2,0,0,0,8,0,0,0,0,0,0,0,0,0,1,0,0,0,0,0,0,0,0,1,0,0,0
-117.328886,34.21451,250,SMC01367,7/6/11,34.21451,-117.328886,Open,2.2605926,South_Coast,UpperSantaAna,SAN BERNARDINO,Devil's Canyon,Southern California Stormwater Monitoring Coalition,6,0,0,0,0,0,0,5,1,0,0,0,0,0,0,0,0,0,0,0,0,0,0,0,0,0,0,0,0,0,0,0,0,0,0,0,0,0,0,0,0,0,5,0,0,0,0,0,0,0,0,0,0,0,0,0,0,0,0,0,0,0,0,0,0,0,1,0,0,0,0,0,0,0,0,0,0,0,0,0,0,0,0,0,0,0
-116.806274,33.305522,251,SMC01413,7/29/12,33.305522,-116.806274,Open,16.52145508,South_Coast,NorthernSanDiego,SAN DIEGO,Pine Valley Canyon Creek,Southern California Stormwater Monitoring Coalition,0,0,0,0,0,0,0,0,0,0,0,0,0,0,0,0,0,0,0,0,0,0,0,0,0,0,0,0,0,0,0,0,0,0,0,0,0,0,0,0,0,0,0,0,0,0,0,0,0,0,0,0,0,0,0,0,0,0,0,0,0,0,0,0,0,0,0,0,0,0,0,0,0,0,0,0,0,0,0,0,0,0,0,0,0,0
-117.861277,33.955042,252,SMC01454,7/15/12,33.955042,-117.861277,Urban,8.49326098,South_Coast,SanGabriel,LOS ANGELES,Brea Creek,Southern California Stormwater Monitoring Coalition,87,2,0,0,4,0,0,0,1,80,0,0,0,0,0,0,0,0,0,0,0,0,0,0,0,0,0,0,0,0,0,0,0,0,0,0,0,0,0,0,0,0,0,0,0,0,1,0,2,0,0,0,12,0,2,1,3,0,0,1,0,0,0,61,0,0,1,0,0,0,0,0,0,0,0,3,0,0,0,0,0,0,0,0,0,0
-118.526661,34.275165,253,SMC01464,6/7/12,34.275165,-118.526661,Urban,7.71716754,South_Coast,LosAngeles,LOS ANGELES,Aliso Canyon Wash,Southern California Stormwater Monitoring Coalition,2,1,0,0,0,0,0,0,0,1,0,0,0,0,0,0,0,0,0,0,0,0,0,0,0,0,0,0,0,0,0,1,0,0,0,0,0,0,0,0,0,0,0,0,0,0,0,0,0,0,0,0,0,0,0,0,0,0,0,1,0,0,0,0,0,0,0,0,0,0,0,0,0,0,0,0,0,0,0,0,0,0,0,0,0,0
-117.71385,34.253273,254,SMC01504,6/28/11,34.253273,-117.71385,Open,4.11499529,South_Coast,SanGabriel,LOS ANGELES,Upper San Gabriel,Southern California Stormwater Monitoring Coalition,0,0,0,0,0,0,0,0,0,0,0,0,0,0,0,0,0,0,0,0,0,0,0,0,0,0,0,0,0,0,0,0,0,0,0,0,0,0,0,0,0,0,0,0,0,0,0,0,0,0,0,0,0,0,0,0,0,0,0,0,0,0,0,0,0,0,0,0,0,0,0,0,0,0,0,0,0,0,0,0,0,0,0,0,0,0
-116.982256,34.095359,255,SMC01523,7/7/11,34.095359,-116.982256,Open,2.2605926,South_Coast,UpperSantaAna,SAN BERNARDINO,Mill Creek,Southern California Stormwater Monitoring Coalition,4,0,0,1,0,0,0,1,1,1,0,0,0,0,0,0,0,0,0,0,0,0,0,0,0,0,0,0,0,0,0,0,0,0,0,0,0,0,0,0,0,0,0,1,0,0,0,0,0,0,0,0,1,0,0,0,0,0,0,0,0,0,0,0,0,0,0,0,0,0,0,0,0,0,0,0,0,0,0,0,0,0,0,1,1,0
-118.392126,34.56909,256,SMC01536,7/12/11,34.56909,-118.392126,Open,3.06541305,South_Coast,SantaClara,LOS ANGELES,Boquet Canyon Creek,Southern California Stormwater Monitoring Coalition,13,0,0,0,0,1,0,0,0,6,6,0,0,0,0,0,0,0,0,0,0,0,6,0,0,0,0,0,0,0,0,0,0,0,0,1,0,0,0,0,0,0,0,0,0,0,0,0,0,0,0,0,3,0,1,1,0,0,0,0,0,0,0,1,0,0,0,0,0,0,0,0,0,0,0,0,0,0,0,0,0,0,0,0,0,0
-117.779665,33.549988,257,SMC01555,5/3/11,33.549988,-117.779665,Urban,4.74449965,South_Coast,SanJuan,ORANGE,Lagu Cyn Wash,Southern California Stormwater Monitoring Coalition,33,7,0,0,1,0,0,1,1,14,9,0,0,0,0,0,0,0,0,0,0,0,9,0,0,0,0,0,0,0,0,1,0,0,0,0,0,0,0,0,0,0,0,0,0,0,0,0,6,0,0,0,1,0,0,0,0,0,0,1,0,0,0,3,0,0,1,0,0,0,0,0,0,9,0,1,0,0,0,0,0,0,0,1,0,0
-117.45726,34.20984,258,SMC01559,6/21/11,34.20984,-117.45726,Open,0.19854598,South_Coast,MiddleSantaAna,SAN BERNARDINO,Lytle Creek,Southern California Stormwater Monitoring Coalition,20,3,0,2,1,0,0,3,0,11,0,1,1,0,0,0,0,0,0,0,0,0,0,0,0,0,0,0,0,0,0,2,0,0,0,0,0,0,0,0,0,0,0,0,0,0,0,0,1,0,0,0,1,0,2,1,1,0,0,4,1,0,0,1,1,0,0,0,0,0,0,0,0,0,0,1,0,0,0,0,0,0,0,1,1,0
-117.234811,32.841989,259,SMC01606,9/15/13,32.841989,-117.234811,Urban,1.86701805,South_Coast,MissionBaySanDiego,SAN DIEGO,,Coastkeepers,167,8,0,3,5,2,0,8,12,126,3,4,0,1,1,0,0,0,0,0,1,0,1,1,0,0,2,0,0,0,0,0,0,0,1,1,0,0,0,0,0,1,0,3,6,1,1,0,8,0,0,0,35,0,4,1,2,0,5,6,10,0,1,52,0,3,2,0,0,0,2,0,0,3,1,4,0,0,0,0,0,0,0,1,2,0
-117.06359,34.080503,260,SMC01655,7/6/11,34.080503,-117.06359,Open,1.10674602,South_Coast,UpperSantaAna,SAN BERNARDINO,Mill Creek,Southern California Stormwater Monitoring Coalition,13,0,5,1,0,0,0,3,0,4,0,0,1,0,0,0,0,0,0,0,0,0,0,0,0,0,0,0,0,0,0,0,0,0,0,0,0,0,0,0,1,1,0,0,0,0,0,0,0,0,5,0,0,0,0,1,0,0,1,1,0,0,0,1,0,0,0,0,0,0,0,0,0,0,0,0,0,0,0,0,0,0,0,0,1,0
-118.53627,34.156332,261,SMC01656,6/6/12,34.156332,-118.53627,Urban,5.62694477,South_Coast,LosAngeles,LOS ANGELES,Cabarello Creek,Southern California Stormwater Monitoring Coalition,21,2,0,0,0,0,0,0,1,17,1,0,0,0,0,0,0,0,0,0,0,0,1,0,0,0,0,1,0,0,0,2,0,0,0,0,0,0,0,0,0,0,0,0,0,0,0,0,0,0,0,0,0,0,0,0,0,0,0,3,0,0,0,0,0,0,0,0,0,0,0,0,0,13,0,0,0,0,0,0,0,1,0,0,0,0
-117.956658,33.924803,262,SMC01662,7/19/12,33.924803,-117.956658,Urban,8.49326098,South_Coast,SanGabriel,ORANGE,Coyote Creek,Southern California Stormwater Monitoring Coalition,15,5,0,0,1,0,0,2,0,7,0,1,0,0,0,0,0,0,0,0,0,0,0,0,0,0,0,0,0,0,0,4,0,0,0,0,0,0,0,0,0,1,0,0,0,0,0,0,0,0,0,0,0,0,2,1,0,0,0,1,0,0,0,3,0,0,0,0,0,0,0,0,0,0,0,1,0,0,0,0,0,0,0,0,0,1
-116.825584,34.169628,263,SMC01671,7/10/12,34.169628,-116.825584,Open,1.58271825,South_Coast,UpperSantaAna,SAN BERNARDINO,Santa A River,Southern California Stormwater Monitoring Coalition,0,0,0,0,0,0,0,0,0,0,0,0,0,0,0,0,0,0,0,0,0,0,0,0,0,0,0,0,0,0,0,0,0,0,0,0,0,0,0,0,0,0,0,0,0,0,0,0,0,0,0,0,0,0,0,0,0,0,0,0,0,0,0,0,0,0,0,0,0,0,0,0,0,0,0,0,0,0,0,0,0,0,0,0,0,0
-117.23574,33.268145,264,SMC01689,7/5/12,33.268145,-117.23574,Urban,0.96869634,South_Coast,NorthernSanDiego,SAN DIEGO,San Luis Rey River,Southern California Stormwater Monitoring Coalition,9,0,0,0,0,0,0,0,8,1,0,0,0,0,0,0,0,0,0,0,0,0,0,0,0,0,0,0,0,0,0,0,0,0,0,0,0,0,0,0,0,0,0,0,0,0,0,0,0,0,0,0,0,0,0,0,0,0,0,0,0,0,0,1,0,0,0,0,0,0,8,0,0,0,0,0,0,0,0,0,0,0,0,0,0,0
-118.169726,34.197986,265,SMC01692,6/20/11,34.197986,-118.169726,Urban,7.90963238,South_Coast,LosAngeles,LOS ANGELES,Arroyo Seco,Southern California Stormwater Monitoring Coalition,6,0,3,0,1,0,0,1,0,0,1,0,0,0,0,0,0,0,0,0,0,0,0,0,0,0,0,0,0,0,0,0,0,0,0,0,0,0,0,0,0,1,0,0,0,0,0,0,0,0,3,0,0,0,0,0,0,0,0,0,0,0,0,0,0,0,0,0,0,0,0,1,0,0,0,1,0,0,0,0,0,0,0,0,0,0
-118.460022,34.574901,266,SMC01728,7/13/11,34.574901,-118.460022,Open,2.672257,South_Coast,SantaClara,LOS ANGELES,San Francisquito,Southern California Stormwater Monitoring Coalition,5,0,0,0,0,0,0,0,0,5,0,0,0,0,0,0,0,0,0,0,0,0,0,0,0,0,0,0,0,0,0,0,0,0,0,0,0,0,0,0,0,0,0,0,0,0,0,0,0,0,0,0,3,0,1,0,0,0,0,1,0,0,0,0,0,0,0,0,0,0,0,0,0,0,0,0,0,0,0,0,0,0,0,0,0,0
-118.122805,34.110013,267,SMC01772,7/11/12,34.110013,-118.122805,Urban,6.75388271,South_Coast,LosAngeles,LOS ANGELES,Alhambra Wash,Southern California Stormwater Monitoring Coalition,33,0,0,0,0,0,0,2,0,26,5,2,0,0,0,0,0,0,0,0,0,0,5,0,0,0,0,0,0,0,0,0,0,0,0,0,0,0,0,0,0,0,0,0,0,0,0,0,0,0,0,0,0,0,0,1,0,0,0,2,0,0,0,16,0,0,0,0,0,0,0,0,0,7,0,0,0,0,0,0,0,0,0,0,0,0
-117.272748,34.190183,268,SMC01783,7/11/12,34.190183,-117.272748,Open,2.2605926,South_Coast,UpperSantaAna,SAN BERNARDINO,Waterman Canyon,Southern California Stormwater Monitoring Coalition,28,0,0,0,6,1,0,3,6,12,0,1,2,0,0,0,0,0,0,0,1,0,0,0,0,0,0,0,0,0,1,0,0,0,1,0,1,0,0,0,0,0,0,0,0,0,5,0,0,0,0,0,2,0,1,0,0,0,0,3,2,2,0,0,0,0,0,0,0,0,0,0,0,1,0,1,0,0,0,0,4,0,0,0,0,0
-117.142287,33.986675,269,SMC01805,7/9/12,33.986675,-117.142287,Open,1.10674602,South_Coast,UpperSantaAna,RIVERSIDE,San Timeteo,Southern California Stormwater Monitoring Coalition,3,0,0,0,0,0,0,0,1,2,0,0,0,0,0,0,0,0,0,0,0,0,0,0,0,0,0,0,0,0,0,0,0,0,0,0,0,0,0,0,0,0,0,0,0,0,0,0,0,0,0,0,1,0,0,0,0,0,0,0,0,0,0,1,0,0,1,0,0,0,0,0,0,0,0,0,0,0,0,0,0,0,0,0,0,0
-118.073165,34.309404,270,SMC01808,6/13/11,34.309404,-118.073165,Open,2.37724297,South_Coast,LosAngeles,LOS ANGELES,Alder Creek,Southern California Stormwater Monitoring Coalition,0,0,0,0,0,0,0,0,0,0,0,0,0,0,0,0,0,0,0,0,0,0,0,0,0,0,0,0,0,0,0,0,0,0,0,0,0,0,0,0,0,0,0,0,0,0,0,0,0,0,0,0,0,0,0,0,0,0,0,0,0,0,0,0,0,0,0,0,0,0,0,0,0,0,0,0,0,0,0,0,0,0,0,0,0,0
-117.75598,34.091169,271,SMC01824,6/21/12,34.091169,-117.75598,Urban,7.19981454,South_Coast,SanGabriel,LOS ANGELES,Thompson Creek,Southern California Stormwater Monitoring Coalition,19,2,1,0,0,0,0,1,1,14,0,1,0,0,0,0,0,0,0,0,0,0,0,0,0,0,0,0,0,0,0,0,0,0,0,0,0,0,0,0,0,0,0,0,0,0,0,0,2,0,1,0,13,0,0,0,0,0,0,1,0,0,0,0,0,0,1,0,0,0,0,0,0,0,0,0,0,0,0,0,0,0,0,0,0,0
-117.341678,33.235485,272,SMC01881,7/9/13,33.235485,-117.341678,Urban,1.18972906,South_Coast,NorthernSanDiego,SAN DIEGO,San Luis Rey River,Southern California Stormwater Monitoring Coalition,23,6,0,0,3,1,0,2,0,10,1,0,2,0,0,0,0,0,0,0,0,0,0,0,0,0,0,0,0,0,0,0,0,0,1,0,0,0,0,1,0,0,0,0,0,0,2,0,6,0,0,0,2,0,4,0,0,0,0,0,0,0,0,4,0,0,0,0,0,0,0,0,0,0,0,1,0,0,0,0,0,0,0,0,0,0
-117.856021,34.010369,273,SMC01902,7/16/12,34.010369,-117.856021,Urban,7.19981454,South_Coast,SanGabriel,LOS ANGELES,San Jose Creek,Southern California Stormwater Monitoring Coalition,21,3,0,0,2,0,0,0,1,13,2,0,0,0,0,0,0,0,0,0,1,0,2,0,0,0,0,0,0,0,0,0,0,0,0,0,0,0,0,0,0,0,0,0,0,0,0,0,3,0,0,0,2,0,1,0,0,0,1,1,0,0,0,6,0,0,0,0,0,0,0,0,0,2,0,2,0,0,0,0,0,0,0,0,0,0